PostalCode,Neighbourhood,Latitude,Longitude,Distance,RestaurantType
M1B,"Malvern, Rouge",43.806686299999996,-79.19435340000001,22.92186906445645,No Restaurants
M1C,"Highland Creek, Port Union, Rouge Hill",43.7845351,-79.16049709999999,23.216478117083778,No Restaurants
M1E,"Guildwood, Morningside, West Hill",43.7635726,-79.1887115,20.004767390596108,Bakery
M1E,"Guildwood, Morningside, West Hill",43.7635726,-79.1887115,20.004767390596108,Restaurant
M1E,"Guildwood, Morningside, West Hill",43.7635726,-79.1887115,20.004767390596108,Chinese Restaurant
M1E,"Guildwood, Morningside, West Hill",43.7635726,-79.1887115,20.004767390596108,Restaurant
M1G,Woburn,43.7709921,-79.21691740000001,18.82383553920819,Korean Restaurant
M1H,Cedarbrae,43.773136,-79.23947609999999,17.738704434767172,Thai Restaurant
M1H,Cedarbrae,43.773136,-79.23947609999999,17.738704434767172,Hakka Restaurant
M1H,Cedarbrae,43.773136,-79.23947609999999,17.738704434767172,Restaurant
M1H,Cedarbrae,43.773136,-79.23947609999999,17.738704434767172,Bakery
M1H,Cedarbrae,43.773136,-79.23947609999999,17.738704434767172,South Indian Restaurant
M1H,Cedarbrae,43.773136,-79.23947609999999,17.738704434767172,Caribbean Restaurant
M1H,Cedarbrae,43.773136,-79.23947609999999,17.738704434767172,Café
M1H,Cedarbrae,43.773136,-79.23947609999999,17.738704434767172,Italian Restaurant
M1J,Scarborough Village,43.7447342,-79.23947609999999,15.53042369862049,No Restaurants
M1K,"East Birchmount Park, Ionview, Kennedy Park",43.7279292,-79.26202940000002,12.949615336868016,Coffee Shop
M1K,"East Birchmount Park, Ionview, Kennedy Park",43.7279292,-79.26202940000002,12.949615336868016,Filipino Restaurant
M1K,"East Birchmount Park, Ionview, Kennedy Park",43.7279292,-79.26202940000002,12.949615336868016,Chinese Restaurant
M1K,"East Birchmount Park, Ionview, Kennedy Park",43.7279292,-79.26202940000002,12.949615336868016,Food Truck
M1L,"Clairlea, Golden Mile, Oakridge",43.711111700000004,-79.2845772,10.375474446665102,Restaurant
M1M,"Cliffcrest, Cliffside, Scarborough Village West",43.716316,-79.23947609999999,13.695950296868805,American Restaurant
M1N,"Birch Cliff, Cliffside West",43.692657000000004,-79.2648481,10.68953692542948,Café
M1N,"Birch Cliff, Cliffside West",43.692657000000004,-79.2648481,10.68953692542948,Pizza Place
M1N,"Birch Cliff, Cliffside West",43.692657000000004,-79.2648481,10.68953692542948,Japanese Restaurant
M1P,"Dorset Park, Scarborough Town Centre, Wexford Heights",43.7574096,-79.27330400000001,14.658867327726051,Indian Restaurant
M1P,"Dorset Park, Scarborough Town Centre, Wexford Heights",43.7574096,-79.27330400000001,14.658867327726051,Mediterranean Restaurant
M1R,"Maryvale, Wexford",43.750071500000004,-79.2958491,12.931483048333584,Coffee Shop
M1R,"Maryvale, Wexford",43.750071500000004,-79.2958491,12.931483048333584,Indian Restaurant
M1S,Agincourt,43.7942003,-79.26202940000002,18.5093304093545,Breakfast Spot
M1S,Agincourt,43.7942003,-79.26202940000002,18.5093304093545,Coffee Shop
M1S,Agincourt,43.7942003,-79.26202940000002,18.5093304093545,Korean Restaurant
M1S,Agincourt,43.7942003,-79.26202940000002,18.5093304093545,Coffee Shop
M1S,Agincourt,43.7942003,-79.26202940000002,18.5093304093545,Restaurant
M1S,Agincourt,43.7942003,-79.26202940000002,18.5093304093545,Sandwich Place
M1T,"Clarks Corners, Sullivan, Tam O'Shanter",43.7816375,-79.3043021,15.647060706941483,Fast Food Restaurant
M1T,"Clarks Corners, Sullivan, Tam O'Shanter",43.7816375,-79.3043021,15.647060706941483,Filipino Restaurant
M1T,"Clarks Corners, Sullivan, Tam O'Shanter",43.7816375,-79.3043021,15.647060706941483,Halal Restaurant
M1T,"Clarks Corners, Sullivan, Tam O'Shanter",43.7816375,-79.3043021,15.647060706941483,Asian Restaurant
M1T,"Clarks Corners, Sullivan, Tam O'Shanter",43.7816375,-79.3043021,15.647060706941483,Fried Chicken Joint
M1V,"Agincourt North, L'Amoreaux East, Milliken, Steeles East",43.8152522,-79.2845772,19.69597517273324,Coffee Shop
M1W,L'Amoreaux West,43.799525200000005,-79.3183887,17.069617580294654,Chinese Restaurant
M1W,L'Amoreaux West,43.799525200000005,-79.3183887,17.069617580294654,Fast Food Restaurant
M1W,L'Amoreaux West,43.799525200000005,-79.3183887,17.069617580294654,Burger Joint
M1W,L'Amoreaux West,43.799525200000005,-79.3183887,17.069617580294654,Coffee Shop
M1W,L'Amoreaux West,43.799525200000005,-79.3183887,17.069617580294654,Bubble Tea Shop
M1W,L'Amoreaux West,43.799525200000005,-79.3183887,17.069617580294654,Chinese Restaurant
M1W,L'Amoreaux West,43.799525200000005,-79.3183887,17.069617580294654,Sandwich Place
M1W,L'Amoreaux West,43.799525200000005,-79.3183887,17.069617580294654,Bakery
M1W,L'Amoreaux West,43.799525200000005,-79.3183887,17.069617580294654,Food Court
M1W,L'Amoreaux West,43.799525200000005,-79.3183887,17.069617580294654,Fast Food Restaurant
M1W,L'Amoreaux West,43.799525200000005,-79.3183887,17.069617580294654,Middle Eastern Restaurant
M1W,L'Amoreaux West,43.799525200000005,-79.3183887,17.069617580294654,Chinese Restaurant
M1W,L'Amoreaux West,43.799525200000005,-79.3183887,17.069617580294654,Coffee Shop
M1W,L'Amoreaux West,43.799525200000005,-79.3183887,17.069617580294654,Noodle House
M1W,L'Amoreaux West,43.799525200000005,-79.3183887,17.069617580294654,Chinese Restaurant
M1W,L'Amoreaux West,43.799525200000005,-79.3183887,17.069617580294654,Fast Food Restaurant
M1W,L'Amoreaux West,43.799525200000005,-79.3183887,17.069617580294654,Chinese Restaurant
M1W,L'Amoreaux West,43.799525200000005,-79.3183887,17.069617580294654,Pizza Place
M1W,L'Amoreaux West,43.799525200000005,-79.3183887,17.069617580294654,Breakfast Spot
M1W,L'Amoreaux West,43.799525200000005,-79.3183887,17.069617580294654,Japanese Restaurant
M1W,L'Amoreaux West,43.799525200000005,-79.3183887,17.069617580294654,Breakfast Spot
M1W,L'Amoreaux West,43.799525200000005,-79.3183887,17.069617580294654,Fast Food Restaurant
M1W,L'Amoreaux West,43.799525200000005,-79.3183887,17.069617580294654,American Restaurant
M1W,L'Amoreaux West,43.799525200000005,-79.3183887,17.069617580294654,Café
M1W,L'Amoreaux West,43.799525200000005,-79.3183887,17.069617580294654,Indian Restaurant
M1W,L'Amoreaux West,43.799525200000005,-79.3183887,17.069617580294654,Burger Joint
M1X,Upper Rouge,43.836124700000006,-79.20563609999999,24.896615683306866,No Restaurants
M2H,Hillcrest Village,43.8037622,-79.3634517,16.735961016039603,Fast Food Restaurant
M2H,Hillcrest Village,43.8037622,-79.3634517,16.735961016039603,Mediterranean Restaurant
M2J,"Fairview, Henry Farm, Oriole",43.7785175,-79.3465557,14.202887009470176,Ice Cream Shop
M2J,"Fairview, Henry Farm, Oriole",43.7785175,-79.3465557,14.202887009470176,Coffee Shop
M2J,"Fairview, Henry Farm, Oriole",43.7785175,-79.3465557,14.202887009470176,Frozen Yogurt Shop
M2J,"Fairview, Henry Farm, Oriole",43.7785175,-79.3465557,14.202887009470176,Coffee Shop
M2J,"Fairview, Henry Farm, Oriole",43.7785175,-79.3465557,14.202887009470176,Restaurant
M2J,"Fairview, Henry Farm, Oriole",43.7785175,-79.3465557,14.202887009470176,Sushi Restaurant
M2J,"Fairview, Henry Farm, Oriole",43.7785175,-79.3465557,14.202887009470176,Tea Room
M2J,"Fairview, Henry Farm, Oriole",43.7785175,-79.3465557,14.202887009470176,Coffee Shop
M2J,"Fairview, Henry Farm, Oriole",43.7785175,-79.3465557,14.202887009470176,Coffee Shop
M2J,"Fairview, Henry Farm, Oriole",43.7785175,-79.3465557,14.202887009470176,Smoothie Shop
M2J,"Fairview, Henry Farm, Oriole",43.7785175,-79.3465557,14.202887009470176,Bubble Tea Shop
M2J,"Fairview, Henry Farm, Oriole",43.7785175,-79.3465557,14.202887009470176,Bakery
M2J,"Fairview, Henry Farm, Oriole",43.7785175,-79.3465557,14.202887009470176,Candy Store
M2J,"Fairview, Henry Farm, Oriole",43.7785175,-79.3465557,14.202887009470176,Juice Bar
M2J,"Fairview, Henry Farm, Oriole",43.7785175,-79.3465557,14.202887009470176,Bakery
M2J,"Fairview, Henry Farm, Oriole",43.7785175,-79.3465557,14.202887009470176,Coffee Shop
M2J,"Fairview, Henry Farm, Oriole",43.7785175,-79.3465557,14.202887009470176,Burrito Place
M2J,"Fairview, Henry Farm, Oriole",43.7785175,-79.3465557,14.202887009470176,Restaurant
M2J,"Fairview, Henry Farm, Oriole",43.7785175,-79.3465557,14.202887009470176,Mediterranean Restaurant
M2J,"Fairview, Henry Farm, Oriole",43.7785175,-79.3465557,14.202887009470176,Wings Joint
M2J,"Fairview, Henry Farm, Oriole",43.7785175,-79.3465557,14.202887009470176,Burger Joint
M2J,"Fairview, Henry Farm, Oriole",43.7785175,-79.3465557,14.202887009470176,Asian Restaurant
M2J,"Fairview, Henry Farm, Oriole",43.7785175,-79.3465557,14.202887009470176,Fast Food Restaurant
M2J,"Fairview, Henry Farm, Oriole",43.7785175,-79.3465557,14.202887009470176,Chinese Restaurant
M2J,"Fairview, Henry Farm, Oriole",43.7785175,-79.3465557,14.202887009470176,Fast Food Restaurant
M2J,"Fairview, Henry Farm, Oriole",43.7785175,-79.3465557,14.202887009470176,Sandwich Place
M2J,"Fairview, Henry Farm, Oriole",43.7785175,-79.3465557,14.202887009470176,Fast Food Restaurant
M2J,"Fairview, Henry Farm, Oriole",43.7785175,-79.3465557,14.202887009470176,Tea Room
M2J,"Fairview, Henry Farm, Oriole",43.7785175,-79.3465557,14.202887009470176,Food Court
M2J,"Fairview, Henry Farm, Oriole",43.7785175,-79.3465557,14.202887009470176,Fast Food Restaurant
M2J,"Fairview, Henry Farm, Oriole",43.7785175,-79.3465557,14.202887009470176,Fast Food Restaurant
M2J,"Fairview, Henry Farm, Oriole",43.7785175,-79.3465557,14.202887009470176,Caribbean Restaurant
M2J,"Fairview, Henry Farm, Oriole",43.7785175,-79.3465557,14.202887009470176,Indian Restaurant
M2J,"Fairview, Henry Farm, Oriole",43.7785175,-79.3465557,14.202887009470176,American Restaurant
M2J,"Fairview, Henry Farm, Oriole",43.7785175,-79.3465557,14.202887009470176,Juice Bar
M2J,"Fairview, Henry Farm, Oriole",43.7785175,-79.3465557,14.202887009470176,Coffee Shop
M2J,"Fairview, Henry Farm, Oriole",43.7785175,-79.3465557,14.202887009470176,Japanese Restaurant
M2J,"Fairview, Henry Farm, Oriole",43.7785175,-79.3465557,14.202887009470176,Asian Restaurant
M2J,"Fairview, Henry Farm, Oriole",43.7785175,-79.3465557,14.202887009470176,Greek Restaurant
M2J,"Fairview, Henry Farm, Oriole",43.7785175,-79.3465557,14.202887009470176,Fast Food Restaurant
M2J,"Fairview, Henry Farm, Oriole",43.7785175,-79.3465557,14.202887009470176,Pizza Place
M2J,"Fairview, Henry Farm, Oriole",43.7785175,-79.3465557,14.202887009470176,Taco Place
M2J,"Fairview, Henry Farm, Oriole",43.7785175,-79.3465557,14.202887009470176,Chinese Restaurant
M2J,"Fairview, Henry Farm, Oriole",43.7785175,-79.3465557,14.202887009470176,Food Court
M2J,"Fairview, Henry Farm, Oriole",43.7785175,-79.3465557,14.202887009470176,Chinese Restaurant
M2J,"Fairview, Henry Farm, Oriole",43.7785175,-79.3465557,14.202887009470176,Restaurant
M2J,"Fairview, Henry Farm, Oriole",43.7785175,-79.3465557,14.202887009470176,Sandwich Place
M2J,"Fairview, Henry Farm, Oriole",43.7785175,-79.3465557,14.202887009470176,Japanese Restaurant
M2K,Bayview Village,43.7869473,-79.385975,14.761586335838578,No Restaurants
M2L,"Silver Hills, York Mills",43.7574902,-79.37471409999999,11.534898259048488,No Restaurants
M2M,"Newtonbrook, Willowdale",43.789053,-79.40849279999999,15.0913707429978,No Restaurants
M2N,Willowdale South,43.7701199,-79.40849279999999,13.005380400928889,Grocery Store
M2N,Willowdale South,43.7701199,-79.40849279999999,13.005380400928889,Coffee Shop
M2N,Willowdale South,43.7701199,-79.40849279999999,13.005380400928889,Fast Food Restaurant
M2N,Willowdale South,43.7701199,-79.40849279999999,13.005380400928889,Café
M2N,Willowdale South,43.7701199,-79.40849279999999,13.005380400928889,Bubble Tea Shop
M2N,Willowdale South,43.7701199,-79.40849279999999,13.005380400928889,Sushi Restaurant
M2N,Willowdale South,43.7701199,-79.40849279999999,13.005380400928889,Ice Cream Shop
M2N,Willowdale South,43.7701199,-79.40849279999999,13.005380400928889,Bubble Tea Shop
M2N,Willowdale South,43.7701199,-79.40849279999999,13.005380400928889,Food Truck
M2N,Willowdale South,43.7701199,-79.40849279999999,13.005380400928889,Café
M2N,Willowdale South,43.7701199,-79.40849279999999,13.005380400928889,Coffee Shop
M2N,Willowdale South,43.7701199,-79.40849279999999,13.005380400928889,Café
M2N,Willowdale South,43.7701199,-79.40849279999999,13.005380400928889,Japanese Restaurant
M2N,Willowdale South,43.7701199,-79.40849279999999,13.005380400928889,Korean Restaurant
M2P,York Mills West,43.752758299999996,-79.4000493,11.01429878097126,No Restaurants
M2R,Willowdale West,43.7827364,-79.4422593,14.956968616679744,Coffee Shop
M2R,Willowdale West,43.7827364,-79.4422593,14.956968616679744,Pizza Place
M2R,Willowdale West,43.7827364,-79.4422593,14.956968616679744,Bakery
M2R,Willowdale West,43.7827364,-79.4422593,14.956968616679744,Pizza Place
M3A,Parkwoods,43.7532586,-79.3296565,11.944769368535765,Fast Food Restaurant
M3B,Don Mills North,43.745905799999996,-79.352188,10.583185841793531,No Restaurants
M3C,"Don Mills South, Flemingdon Park",43.72589970000001,-79.340923,8.801700994018585,Bubble Tea Shop
M3C,"Don Mills South, Flemingdon Park",43.72589970000001,-79.340923,8.801700994018585,Fast Food Restaurant
M3C,"Don Mills South, Flemingdon Park",43.72589970000001,-79.340923,8.801700994018585,Asian Restaurant
M3C,"Don Mills South, Flemingdon Park",43.72589970000001,-79.340923,8.801700994018585,Coffee Shop
M3C,"Don Mills South, Flemingdon Park",43.72589970000001,-79.340923,8.801700994018585,Dim Sum Restaurant
M3C,"Don Mills South, Flemingdon Park",43.72589970000001,-79.340923,8.801700994018585,Chinese Restaurant
M3C,"Don Mills South, Flemingdon Park",43.72589970000001,-79.340923,8.801700994018585,Asian Restaurant
M3C,"Don Mills South, Flemingdon Park",43.72589970000001,-79.340923,8.801700994018585,Italian Restaurant
M3C,"Don Mills South, Flemingdon Park",43.72589970000001,-79.340923,8.801700994018585,Restaurant
M3C,"Don Mills South, Flemingdon Park",43.72589970000001,-79.340923,8.801700994018585,Café
M3C,"Don Mills South, Flemingdon Park",43.72589970000001,-79.340923,8.801700994018585,Japanese Restaurant
M3C,"Don Mills South, Flemingdon Park",43.72589970000001,-79.340923,8.801700994018585,Restaurant
M3C,"Don Mills South, Flemingdon Park",43.72589970000001,-79.340923,8.801700994018585,Cafeteria
M3C,"Don Mills South, Flemingdon Park",43.72589970000001,-79.340923,8.801700994018585,Café
M3H,"Bathurst Manor, Downsview North, Wilson Heights",43.7543283,-79.4422593,11.979509719954683,Fried Chicken Joint
M3H,"Bathurst Manor, Downsview North, Wilson Heights",43.7543283,-79.4422593,11.979509719954683,Middle Eastern Restaurant
M3H,"Bathurst Manor, Downsview North, Wilson Heights",43.7543283,-79.4422593,11.979509719954683,Deli / Bodega
M3H,"Bathurst Manor, Downsview North, Wilson Heights",43.7543283,-79.4422593,11.979509719954683,Coffee Shop
M3H,"Bathurst Manor, Downsview North, Wilson Heights",43.7543283,-79.4422593,11.979509719954683,Sushi Restaurant
M3H,"Bathurst Manor, Downsview North, Wilson Heights",43.7543283,-79.4422593,11.979509719954683,Coffee Shop
M3H,"Bathurst Manor, Downsview North, Wilson Heights",43.7543283,-79.4422593,11.979509719954683,Korean Restaurant
M3H,"Bathurst Manor, Downsview North, Wilson Heights",43.7543283,-79.4422593,11.979509719954683,Ice Cream Shop
M3H,"Bathurst Manor, Downsview North, Wilson Heights",43.7543283,-79.4422593,11.979509719954683,Restaurant
M3H,"Bathurst Manor, Downsview North, Wilson Heights",43.7543283,-79.4422593,11.979509719954683,Pizza Place
M3H,"Bathurst Manor, Downsview North, Wilson Heights",43.7543283,-79.4422593,11.979509719954683,Ice Cream Shop
M3H,"Bathurst Manor, Downsview North, Wilson Heights",43.7543283,-79.4422593,11.979509719954683,Sandwich Place
M3H,"Bathurst Manor, Downsview North, Wilson Heights",43.7543283,-79.4422593,11.979509719954683,Fast Food Restaurant
M3H,"Bathurst Manor, Downsview North, Wilson Heights",43.7543283,-79.4422593,11.979509719954683,Diner
M3H,"Bathurst Manor, Downsview North, Wilson Heights",43.7543283,-79.4422593,11.979509719954683,Frozen Yogurt Shop
M3J,"Northwood Park, York University",43.7679803,-79.48726190000001,14.974732382571041,Café
M3J,"Northwood Park, York University",43.7679803,-79.48726190000001,14.974732382571041,Lounge
M3K,"CFB Toronto, Downsview East",43.737473200000004,-79.46476329999999,11.154458794997156,No Restaurants
M3L,Downsview West,43.7390146,-79.5069436,13.449282480734032,Wings Joint
M3M,Downsview Central,43.7284964,-79.49569740000001,11.990622535683865,No Restaurants
M3N,Downsview Northwest,43.7616313,-79.52099940000001,16.04348262601178,Grocery Store
M3N,Downsview Northwest,43.7616313,-79.52099940000001,16.04348262601178,Fried Chicken Joint
M4A,Victoria Village,43.725882299999995,-79.31557159999998,9.827074833124394,Coffee Shop
M4A,Victoria Village,43.725882299999995,-79.31557159999998,9.827074833124394,French Restaurant
M4A,Victoria Village,43.725882299999995,-79.31557159999998,9.827074833124394,Pizza Place
M4A,Victoria Village,43.725882299999995,-79.31557159999998,9.827074833124394,Portuguese Restaurant
M4A,Victoria Village,43.725882299999995,-79.31557159999998,9.827074833124394,Burger Joint
M4B,"Parkview Hill, Woodbine Gardens",43.7063972,-79.309937,8.490398245459021,Breakfast Spot
M4B,"Parkview Hill, Woodbine Gardens",43.7063972,-79.309937,8.490398245459021,Café
M4B,"Parkview Hill, Woodbine Gardens",43.7063972,-79.309937,8.490398245459021,Asian Restaurant
M4B,"Parkview Hill, Woodbine Gardens",43.7063972,-79.309937,8.490398245459021,Mexican Restaurant
M4B,"Parkview Hill, Woodbine Gardens",43.7063972,-79.309937,8.490398245459021,Coffee Shop
M4B,"Parkview Hill, Woodbine Gardens",43.7063972,-79.309937,8.490398245459021,Café
M4B,"Parkview Hill, Woodbine Gardens",43.7063972,-79.309937,8.490398245459021,Pizza Place
M4B,"Parkview Hill, Woodbine Gardens",43.7063972,-79.309937,8.490398245459021,Gastropub
M4B,"Parkview Hill, Woodbine Gardens",43.7063972,-79.309937,8.490398245459021,Pizza Place
M4B,"Parkview Hill, Woodbine Gardens",43.7063972,-79.309937,8.490398245459021,Indian Restaurant
M4B,"Parkview Hill, Woodbine Gardens",43.7063972,-79.309937,8.490398245459021,Fish & Chips Shop
M4B,"Parkview Hill, Woodbine Gardens",43.7063972,-79.309937,8.490398245459021,American Restaurant
M4B,"Parkview Hill, Woodbine Gardens",43.7063972,-79.309937,8.490398245459021,Sandwich Place
M4C,Woodbine Heights,43.695343900000005,-79.3183887,7.169961931213487,Café
M4C,Woodbine Heights,43.695343900000005,-79.3183887,7.169961931213487,Hakka Restaurant
M4C,Woodbine Heights,43.695343900000005,-79.3183887,7.169961931213487,Asian Restaurant
M4C,Woodbine Heights,43.695343900000005,-79.3183887,7.169961931213487,Snack Place
M4C,Woodbine Heights,43.695343900000005,-79.3183887,7.169961931213487,Diner
M4C,Woodbine Heights,43.695343900000005,-79.3183887,7.169961931213487,Restaurant
M4C,Woodbine Heights,43.695343900000005,-79.3183887,7.169961931213487,BBQ Joint
M4E,The Beaches,43.67635739999999,-79.2930312,7.933549937449373,BBQ Joint
M4G,Leaside,43.7090604,-79.3634517,6.404276732008767,Breakfast Spot
M4G,Leaside,43.7090604,-79.3634517,6.404276732008767,Coffee Shop
M4G,Leaside,43.7090604,-79.3634517,6.404276732008767,Breakfast Spot
M4G,Leaside,43.7090604,-79.3634517,6.404276732008767,Sushi Restaurant
M4G,Leaside,43.7090604,-79.3634517,6.404276732008767,Fast Food Restaurant
M4G,Leaside,43.7090604,-79.3634517,6.404276732008767,Salad Place
M4G,Leaside,43.7090604,-79.3634517,6.404276732008767,Restaurant
M4G,Leaside,43.7090604,-79.3634517,6.404276732008767,New American Restaurant
M4G,Leaside,43.7090604,-79.3634517,6.404276732008767,Sandwich Place
M4G,Leaside,43.7090604,-79.3634517,6.404276732008767,Coffee Shop
M4G,Leaside,43.7090604,-79.3634517,6.404276732008767,Frozen Yogurt Shop
M4G,Leaside,43.7090604,-79.3634517,6.404276732008767,Burger Joint
M4G,Leaside,43.7090604,-79.3634517,6.404276732008767,Sushi Restaurant
M4G,Leaside,43.7090604,-79.3634517,6.404276732008767,Sandwich Place
M4G,Leaside,43.7090604,-79.3634517,6.404276732008767,Sandwich Place
M4G,Leaside,43.7090604,-79.3634517,6.404276732008767,Sports Bar
M4G,Leaside,43.7090604,-79.3634517,6.404276732008767,Sushi Restaurant
M4G,Leaside,43.7090604,-79.3634517,6.404276732008767,Peking Duck Restaurant
M4G,Leaside,43.7090604,-79.3634517,6.404276732008767,Japanese Restaurant
M4G,Leaside,43.7090604,-79.3634517,6.404276732008767,Sushi Restaurant
M4G,Leaside,43.7090604,-79.3634517,6.404276732008767,Mexican Restaurant
M4H,Thorncliffe Park,43.7053689,-79.34937190000001,6.459150810337478,Middle Eastern Restaurant
M4H,Thorncliffe Park,43.7053689,-79.34937190000001,6.459150810337478,Coffee Shop
M4H,Thorncliffe Park,43.7053689,-79.34937190000001,6.459150810337478,Indian Restaurant
M4H,Thorncliffe Park,43.7053689,-79.34937190000001,6.459150810337478,Sandwich Place
M4H,Thorncliffe Park,43.7053689,-79.34937190000001,6.459150810337478,Dessert Shop
M4H,Thorncliffe Park,43.7053689,-79.34937190000001,6.459150810337478,African Restaurant
M4H,Thorncliffe Park,43.7053689,-79.34937190000001,6.459150810337478,Indian Restaurant
M4H,Thorncliffe Park,43.7053689,-79.34937190000001,6.459150810337478,Fried Chicken Joint
M4H,Thorncliffe Park,43.7053689,-79.34937190000001,6.459150810337478,Fried Chicken Joint
M4H,Thorncliffe Park,43.7053689,-79.34937190000001,6.459150810337478,Coffee Shop
M4H,Thorncliffe Park,43.7053689,-79.34937190000001,6.459150810337478,Pizza Place
M4H,Thorncliffe Park,43.7053689,-79.34937190000001,6.459150810337478,Filipino Restaurant
M4H,Thorncliffe Park,43.7053689,-79.34937190000001,6.459150810337478,Mediterranean Restaurant
M4H,Thorncliffe Park,43.7053689,-79.34937190000001,6.459150810337478,Fast Food Restaurant
M4H,Thorncliffe Park,43.7053689,-79.34937190000001,6.459150810337478,Middle Eastern Restaurant
M4H,Thorncliffe Park,43.7053689,-79.34937190000001,6.459150810337478,Indian Restaurant
M4H,Thorncliffe Park,43.7053689,-79.34937190000001,6.459150810337478,Bakery
M4H,Thorncliffe Park,43.7053689,-79.34937190000001,6.459150810337478,Pizza Place
M4H,Thorncliffe Park,43.7053689,-79.34937190000001,6.459150810337478,Burger Joint
M4H,Thorncliffe Park,43.7053689,-79.34937190000001,6.459150810337478,Fast Food Restaurant
M4H,Thorncliffe Park,43.7053689,-79.34937190000001,6.459150810337478,Sandwich Place
M4H,Thorncliffe Park,43.7053689,-79.34937190000001,6.459150810337478,Fast Food Restaurant
M4H,Thorncliffe Park,43.7053689,-79.34937190000001,6.459150810337478,Chinese Restaurant
M4H,Thorncliffe Park,43.7053689,-79.34937190000001,6.459150810337478,Café
M4H,Thorncliffe Park,43.7053689,-79.34937190000001,6.459150810337478,Restaurant
M4J,East Toronto,43.685347,-79.3381065,5.250250890670231,Bakery
M4J,East Toronto,43.685347,-79.3381065,5.250250890670231,Greek Restaurant
M4K,"Riverdale, The Danforth West",43.6795571,-79.352188,3.9899227275244327,Ice Cream Shop
M4K,"Riverdale, The Danforth West",43.6795571,-79.352188,3.9899227275244327,Greek Restaurant
M4K,"Riverdale, The Danforth West",43.6795571,-79.352188,3.9899227275244327,Greek Restaurant
M4K,"Riverdale, The Danforth West",43.6795571,-79.352188,3.9899227275244327,Greek Restaurant
M4K,"Riverdale, The Danforth West",43.6795571,-79.352188,3.9899227275244327,Ice Cream Shop
M4K,"Riverdale, The Danforth West",43.6795571,-79.352188,3.9899227275244327,Brewery
M4K,"Riverdale, The Danforth West",43.6795571,-79.352188,3.9899227275244327,Greek Restaurant
M4K,"Riverdale, The Danforth West",43.6795571,-79.352188,3.9899227275244327,Dessert Shop
M4K,"Riverdale, The Danforth West",43.6795571,-79.352188,3.9899227275244327,Greek Restaurant
M4K,"Riverdale, The Danforth West",43.6795571,-79.352188,3.9899227275244327,Restaurant
M4K,"Riverdale, The Danforth West",43.6795571,-79.352188,3.9899227275244327,Greek Restaurant
M4K,"Riverdale, The Danforth West",43.6795571,-79.352188,3.9899227275244327,Greek Restaurant
M4K,"Riverdale, The Danforth West",43.6795571,-79.352188,3.9899227275244327,Coffee Shop
M4K,"Riverdale, The Danforth West",43.6795571,-79.352188,3.9899227275244327,Greek Restaurant
M4K,"Riverdale, The Danforth West",43.6795571,-79.352188,3.9899227275244327,Breakfast Spot
M4K,"Riverdale, The Danforth West",43.6795571,-79.352188,3.9899227275244327,Coffee Shop
M4K,"Riverdale, The Danforth West",43.6795571,-79.352188,3.9899227275244327,Greek Restaurant
M4K,"Riverdale, The Danforth West",43.6795571,-79.352188,3.9899227275244327,Restaurant
M4K,"Riverdale, The Danforth West",43.6795571,-79.352188,3.9899227275244327,Coffee Shop
M4K,"Riverdale, The Danforth West",43.6795571,-79.352188,3.9899227275244327,Sushi Restaurant
M4K,"Riverdale, The Danforth West",43.6795571,-79.352188,3.9899227275244327,Egyptian Restaurant
M4K,"Riverdale, The Danforth West",43.6795571,-79.352188,3.9899227275244327,Diner
M4K,"Riverdale, The Danforth West",43.6795571,-79.352188,3.9899227275244327,Sushi Restaurant
M4K,"Riverdale, The Danforth West",43.6795571,-79.352188,3.9899227275244327,Vegetarian / Vegan Restaurant
M4K,"Riverdale, The Danforth West",43.6795571,-79.352188,3.9899227275244327,Sushi Restaurant
M4K,"Riverdale, The Danforth West",43.6795571,-79.352188,3.9899227275244327,Indian Restaurant
M4K,"Riverdale, The Danforth West",43.6795571,-79.352188,3.9899227275244327,Greek Restaurant
M4K,"Riverdale, The Danforth West",43.6795571,-79.352188,3.9899227275244327,Breakfast Spot
M4K,"Riverdale, The Danforth West",43.6795571,-79.352188,3.9899227275244327,Greek Restaurant
M4K,"Riverdale, The Danforth West",43.6795571,-79.352188,3.9899227275244327,Pub
M4K,"Riverdale, The Danforth West",43.6795571,-79.352188,3.9899227275244327,Burger Joint
M4K,"Riverdale, The Danforth West",43.6795571,-79.352188,3.9899227275244327,Greek Restaurant
M4K,"Riverdale, The Danforth West",43.6795571,-79.352188,3.9899227275244327,Greek Restaurant
M4K,"Riverdale, The Danforth West",43.6795571,-79.352188,3.9899227275244327,Greek Restaurant
M4K,"Riverdale, The Danforth West",43.6795571,-79.352188,3.9899227275244327,Juice Bar
M4K,"Riverdale, The Danforth West",43.6795571,-79.352188,3.9899227275244327,Juice Bar
M4K,"Riverdale, The Danforth West",43.6795571,-79.352188,3.9899227275244327,Bakery
M4K,"Riverdale, The Danforth West",43.6795571,-79.352188,3.9899227275244327,Deli / Bodega
M4K,"Riverdale, The Danforth West",43.6795571,-79.352188,3.9899227275244327,Salad Place
M4K,"Riverdale, The Danforth West",43.6795571,-79.352188,3.9899227275244327,Fried Chicken Joint
M4K,"Riverdale, The Danforth West",43.6795571,-79.352188,3.9899227275244327,Sushi Restaurant
M4K,"Riverdale, The Danforth West",43.6795571,-79.352188,3.9899227275244327,Tea Room
M4K,"Riverdale, The Danforth West",43.6795571,-79.352188,3.9899227275244327,Sports Bar
M4K,"Riverdale, The Danforth West",43.6795571,-79.352188,3.9899227275244327,Restaurant
M4K,"Riverdale, The Danforth West",43.6795571,-79.352188,3.9899227275244327,Coffee Shop
M4K,"Riverdale, The Danforth West",43.6795571,-79.352188,3.9899227275244327,Burger Joint
M4K,"Riverdale, The Danforth West",43.6795571,-79.352188,3.9899227275244327,Italian Restaurant
M4K,"Riverdale, The Danforth West",43.6795571,-79.352188,3.9899227275244327,Mediterranean Restaurant
M4K,"Riverdale, The Danforth West",43.6795571,-79.352188,3.9899227275244327,Pizza Place
M4K,"Riverdale, The Danforth West",43.6795571,-79.352188,3.9899227275244327,Italian Restaurant
M4L,"India Bazaar, The Beaches West",43.6689985,-79.31557159999998,5.968902562848828,Fish & Chips Shop
M4L,"India Bazaar, The Beaches West",43.6689985,-79.31557159999998,5.968902562848828,Ice Cream Shop
M4L,"India Bazaar, The Beaches West",43.6689985,-79.31557159999998,5.968902562848828,Kebab Restaurant
M4L,"India Bazaar, The Beaches West",43.6689985,-79.31557159999998,5.968902562848828,Italian Restaurant
M4L,"India Bazaar, The Beaches West",43.6689985,-79.31557159999998,5.968902562848828,Coffee Shop
M4L,"India Bazaar, The Beaches West",43.6689985,-79.31557159999998,5.968902562848828,Indian Restaurant
M4L,"India Bazaar, The Beaches West",43.6689985,-79.31557159999998,5.968902562848828,Sushi Restaurant
M4L,"India Bazaar, The Beaches West",43.6689985,-79.31557159999998,5.968902562848828,Dessert Shop
M4L,"India Bazaar, The Beaches West",43.6689985,-79.31557159999998,5.968902562848828,Bakery
M4L,"India Bazaar, The Beaches West",43.6689985,-79.31557159999998,5.968902562848828,Burrito Place
M4L,"India Bazaar, The Beaches West",43.6689985,-79.31557159999998,5.968902562848828,Fast Food Restaurant
M4L,"India Bazaar, The Beaches West",43.6689985,-79.31557159999998,5.968902562848828,Middle Eastern Restaurant
M4L,"India Bazaar, The Beaches West",43.6689985,-79.31557159999998,5.968902562848828,Café
M4L,"India Bazaar, The Beaches West",43.6689985,-79.31557159999998,5.968902562848828,Pizza Place
M4L,"India Bazaar, The Beaches West",43.6689985,-79.31557159999998,5.968902562848828,Sandwich Place
M4L,"India Bazaar, The Beaches West",43.6689985,-79.31557159999998,5.968902562848828,Indian Restaurant
M4L,"India Bazaar, The Beaches West",43.6689985,-79.31557159999998,5.968902562848828,Steakhouse
M4L,"India Bazaar, The Beaches West",43.6689985,-79.31557159999998,5.968902562848828,Caribbean Restaurant
M4L,"India Bazaar, The Beaches West",43.6689985,-79.31557159999998,5.968902562848828,Sandwich Place
M4L,"India Bazaar, The Beaches West",43.6689985,-79.31557159999998,5.968902562848828,Pizza Place
M4L,"India Bazaar, The Beaches West",43.6689985,-79.31557159999998,5.968902562848828,American Restaurant
M4L,"India Bazaar, The Beaches West",43.6689985,-79.31557159999998,5.968902562848828,Burger Joint
M4M,Studio District,43.6595255,-79.340923,3.753846622440336,Ice Cream Shop
M4M,Studio District,43.6595255,-79.340923,3.753846622440336,Coffee Shop
M4M,Studio District,43.6595255,-79.340923,3.753846622440336,Café
M4M,Studio District,43.6595255,-79.340923,3.753846622440336,Sushi Restaurant
M4M,Studio District,43.6595255,-79.340923,3.753846622440336,Coffee Shop
M4M,Studio District,43.6595255,-79.340923,3.753846622440336,Sandwich Place
M4M,Studio District,43.6595255,-79.340923,3.753846622440336,Bakery
M4M,Studio District,43.6595255,-79.340923,3.753846622440336,Coffee Shop
M4M,Studio District,43.6595255,-79.340923,3.753846622440336,Fast Food Restaurant
M4M,Studio District,43.6595255,-79.340923,3.753846622440336,Seafood Restaurant
M4M,Studio District,43.6595255,-79.340923,3.753846622440336,Diner
M4M,Studio District,43.6595255,-79.340923,3.753846622440336,Coffee Shop
M4M,Studio District,43.6595255,-79.340923,3.753846622440336,Italian Restaurant
M4M,Studio District,43.6595255,-79.340923,3.753846622440336,Seafood Restaurant
M4M,Studio District,43.6595255,-79.340923,3.753846622440336,Café
M4M,Studio District,43.6595255,-79.340923,3.753846622440336,BBQ Joint
M4M,Studio District,43.6595255,-79.340923,3.753846622440336,Thai Restaurant
M4M,Studio District,43.6595255,-79.340923,3.753846622440336,Breakfast Spot
M4M,Studio District,43.6595255,-79.340923,3.753846622440336,Restaurant
M4M,Studio District,43.6595255,-79.340923,3.753846622440336,Chinese Restaurant
M4M,Studio District,43.6595255,-79.340923,3.753846622440336,Restaurant
M4M,Studio District,43.6595255,-79.340923,3.753846622440336,Coffee Shop
M4M,Studio District,43.6595255,-79.340923,3.753846622440336,Bakery
M4M,Studio District,43.6595255,-79.340923,3.753846622440336,Breakfast Spot
M4M,Studio District,43.6595255,-79.340923,3.753846622440336,Bakery
M4M,Studio District,43.6595255,-79.340923,3.753846622440336,American Restaurant
M4M,Studio District,43.6595255,-79.340923,3.753846622440336,Latin American Restaurant
M4M,Studio District,43.6595255,-79.340923,3.753846622440336,Cupcake Shop
M4M,Studio District,43.6595255,-79.340923,3.753846622440336,Gastropub
M4M,Studio District,43.6595255,-79.340923,3.753846622440336,Diner
M4M,Studio District,43.6595255,-79.340923,3.753846622440336,Diner
M4M,Studio District,43.6595255,-79.340923,3.753846622440336,Café
M4M,Studio District,43.6595255,-79.340923,3.753846622440336,Restaurant
M4M,Studio District,43.6595255,-79.340923,3.753846622440336,Café
M4M,Studio District,43.6595255,-79.340923,3.753846622440336,Gastropub
M4M,Studio District,43.6595255,-79.340923,3.753846622440336,Ice Cream Shop
M4M,Studio District,43.6595255,-79.340923,3.753846622440336,Italian Restaurant
M4M,Studio District,43.6595255,-79.340923,3.753846622440336,Comfort Food Restaurant
M4M,Studio District,43.6595255,-79.340923,3.753846622440336,Mexican Restaurant
M4M,Studio District,43.6595255,-79.340923,3.753846622440336,Italian Restaurant
M4M,Studio District,43.6595255,-79.340923,3.753846622440336,Pizza Place
M4M,Studio District,43.6595255,-79.340923,3.753846622440336,Restaurant
M4M,Studio District,43.6595255,-79.340923,3.753846622440336,Italian Restaurant
M4N,Lawrence Park,43.7280205,-79.3887901,8.221358048535164,No Restaurants
M4P,Davisville North,43.7127511,-79.3901975,6.529863188623335,Breakfast Spot
M4P,Davisville North,43.7127511,-79.3901975,6.529863188623335,Restaurant
M4P,Davisville North,43.7127511,-79.3901975,6.529863188623335,Tea Room
M4R,North Toronto West,43.7153834,-79.40567840000001,6.975971661781471,Sushi Restaurant
M4S,Davisville,43.7043244,-79.3887901,5.591549865754649,Coffee Shop
M4S,Davisville,43.7043244,-79.3887901,5.591549865754649,French Restaurant
M4S,Davisville,43.7043244,-79.3887901,5.591549865754649,Café
M4S,Davisville,43.7043244,-79.3887901,5.591549865754649,Italian Restaurant
M4S,Davisville,43.7043244,-79.3887901,5.591549865754649,Dessert Shop
M4S,Davisville,43.7043244,-79.3887901,5.591549865754649,Japanese Restaurant
M4S,Davisville,43.7043244,-79.3887901,5.591549865754649,Coffee Shop
M4S,Davisville,43.7043244,-79.3887901,5.591549865754649,Coffee Shop
M4S,Davisville,43.7043244,-79.3887901,5.591549865754649,Italian Restaurant
M4S,Davisville,43.7043244,-79.3887901,5.591549865754649,Seafood Restaurant
M4S,Davisville,43.7043244,-79.3887901,5.591549865754649,Dessert Shop
M4S,Davisville,43.7043244,-79.3887901,5.591549865754649,Café
M4S,Davisville,43.7043244,-79.3887901,5.591549865754649,Coffee Shop
M4S,Davisville,43.7043244,-79.3887901,5.591549865754649,Sushi Restaurant
M4S,Davisville,43.7043244,-79.3887901,5.591549865754649,Café
M4S,Davisville,43.7043244,-79.3887901,5.591549865754649,Indian Restaurant
M4S,Davisville,43.7043244,-79.3887901,5.591549865754649,Pizza Place
M4S,Davisville,43.7043244,-79.3887901,5.591549865754649,Dessert Shop
M4S,Davisville,43.7043244,-79.3887901,5.591549865754649,Coffee Shop
M4S,Davisville,43.7043244,-79.3887901,5.591549865754649,New American Restaurant
M4S,Davisville,43.7043244,-79.3887901,5.591549865754649,Pizza Place
M4S,Davisville,43.7043244,-79.3887901,5.591549865754649,American Restaurant
M4S,Davisville,43.7043244,-79.3887901,5.591549865754649,Bakery
M4S,Davisville,43.7043244,-79.3887901,5.591549865754649,Food Truck
M4S,Davisville,43.7043244,-79.3887901,5.591549865754649,French Restaurant
M4S,Davisville,43.7043244,-79.3887901,5.591549865754649,Italian Restaurant
M4S,Davisville,43.7043244,-79.3887901,5.591549865754649,French Restaurant
M4S,Davisville,43.7043244,-79.3887901,5.591549865754649,Pizza Place
M4S,Davisville,43.7043244,-79.3887901,5.591549865754649,Dessert Shop
M4S,Davisville,43.7043244,-79.3887901,5.591549865754649,Pizza Place
M4S,Davisville,43.7043244,-79.3887901,5.591549865754649,Dessert Shop
M4S,Davisville,43.7043244,-79.3887901,5.591549865754649,Burger Joint
M4S,Davisville,43.7043244,-79.3887901,5.591549865754649,Wings Joint
M4S,Davisville,43.7043244,-79.3887901,5.591549865754649,Café
M4S,Davisville,43.7043244,-79.3887901,5.591549865754649,Italian Restaurant
M4S,Davisville,43.7043244,-79.3887901,5.591549865754649,Brazilian Restaurant
M4S,Davisville,43.7043244,-79.3887901,5.591549865754649,Greek Restaurant
M4S,Davisville,43.7043244,-79.3887901,5.591549865754649,Thai Restaurant
M4S,Davisville,43.7043244,-79.3887901,5.591549865754649,Vegetarian / Vegan Restaurant
M4S,Davisville,43.7043244,-79.3887901,5.591549865754649,Diner
M4S,Davisville,43.7043244,-79.3887901,5.591549865754649,American Restaurant
M4S,Davisville,43.7043244,-79.3887901,5.591549865754649,Restaurant
M4S,Davisville,43.7043244,-79.3887901,5.591549865754649,Wings Joint
M4S,Davisville,43.7043244,-79.3887901,5.591549865754649,Thai Restaurant
M4S,Davisville,43.7043244,-79.3887901,5.591549865754649,Pizza Place
M4S,Davisville,43.7043244,-79.3887901,5.591549865754649,Pizza Place
M4S,Davisville,43.7043244,-79.3887901,5.591549865754649,Café
M4S,Davisville,43.7043244,-79.3887901,5.591549865754649,Sandwich Place
M4S,Davisville,43.7043244,-79.3887901,5.591549865754649,Italian Restaurant
M4T,"Moore Park, Summerhill East",43.6895743,-79.38315990000001,3.966091632180427,Hot Dog Joint
M4T,"Moore Park, Summerhill East",43.6895743,-79.38315990000001,3.966091632180427,Restaurant
M4V,"Deer Park, Forest Hill SE, Rathnelly, South Hill, Summerhill West",43.68641229999999,-79.4000493,3.745530930183414,Coffee Shop
M4V,"Deer Park, Forest Hill SE, Rathnelly, South Hill, Summerhill West",43.68641229999999,-79.4000493,3.745530930183414,Diner
M4V,"Deer Park, Forest Hill SE, Rathnelly, South Hill, Summerhill West",43.68641229999999,-79.4000493,3.745530930183414,Café
M4V,"Deer Park, Forest Hill SE, Rathnelly, South Hill, Summerhill West",43.68641229999999,-79.4000493,3.745530930183414,Diner
M4V,"Deer Park, Forest Hill SE, Rathnelly, South Hill, Summerhill West",43.68641229999999,-79.4000493,3.745530930183414,Café
M4V,"Deer Park, Forest Hill SE, Rathnelly, South Hill, Summerhill West",43.68641229999999,-79.4000493,3.745530930183414,Afghan Restaurant
M4V,"Deer Park, Forest Hill SE, Rathnelly, South Hill, Summerhill West",43.68641229999999,-79.4000493,3.745530930183414,Coffee Shop
M4V,"Deer Park, Forest Hill SE, Rathnelly, South Hill, Summerhill West",43.68641229999999,-79.4000493,3.745530930183414,Steakhouse
M4V,"Deer Park, Forest Hill SE, Rathnelly, South Hill, Summerhill West",43.68641229999999,-79.4000493,3.745530930183414,Italian Restaurant
M4V,"Deer Park, Forest Hill SE, Rathnelly, South Hill, Summerhill West",43.68641229999999,-79.4000493,3.745530930183414,Chinese Restaurant
M4W,Rosedale,43.6795626,-79.37752940000001,2.9451377311008353,No Restaurants
M4X,"Cabbagetown, St. James Town",43.667967,-79.3676753,2.2040451221407413,Italian Restaurant
M4X,"Cabbagetown, St. James Town",43.667967,-79.3676753,2.2040451221407413,Pizza Place
M4X,"Cabbagetown, St. James Town",43.667967,-79.3676753,2.2040451221407413,Coffee Shop
M4X,"Cabbagetown, St. James Town",43.667967,-79.3676753,2.2040451221407413,Chinese Restaurant
M4X,"Cabbagetown, St. James Town",43.667967,-79.3676753,2.2040451221407413,Indian Restaurant
M4X,"Cabbagetown, St. James Town",43.667967,-79.3676753,2.2040451221407413,Diner
M4X,"Cabbagetown, St. James Town",43.667967,-79.3676753,2.2040451221407413,Ramen Restaurant
M4X,"Cabbagetown, St. James Town",43.667967,-79.3676753,2.2040451221407413,Bakery
M4X,"Cabbagetown, St. James Town",43.667967,-79.3676753,2.2040451221407413,Bakery
M4X,"Cabbagetown, St. James Town",43.667967,-79.3676753,2.2040451221407413,Ice Cream Shop
M4X,"Cabbagetown, St. James Town",43.667967,-79.3676753,2.2040451221407413,Sri Lankan Restaurant
M4X,"Cabbagetown, St. James Town",43.667967,-79.3676753,2.2040451221407413,Café
M4X,"Cabbagetown, St. James Town",43.667967,-79.3676753,2.2040451221407413,Vietnamese Restaurant
M4X,"Cabbagetown, St. James Town",43.667967,-79.3676753,2.2040451221407413,Restaurant
M4X,"Cabbagetown, St. James Town",43.667967,-79.3676753,2.2040451221407413,Restaurant
M4X,"Cabbagetown, St. James Town",43.667967,-79.3676753,2.2040451221407413,Ethiopian Restaurant
M4X,"Cabbagetown, St. James Town",43.667967,-79.3676753,2.2040451221407413,Coffee Shop
M4X,"Cabbagetown, St. James Town",43.667967,-79.3676753,2.2040451221407413,Café
M4X,"Cabbagetown, St. James Town",43.667967,-79.3676753,2.2040451221407413,Pizza Place
M4X,"Cabbagetown, St. James Town",43.667967,-79.3676753,2.2040451221407413,Café
M4X,"Cabbagetown, St. James Town",43.667967,-79.3676753,2.2040451221407413,Pizza Place
M4X,"Cabbagetown, St. James Town",43.667967,-79.3676753,2.2040451221407413,Sandwich Place
M4X,"Cabbagetown, St. James Town",43.667967,-79.3676753,2.2040451221407413,Breakfast Spot
M4X,"Cabbagetown, St. James Town",43.667967,-79.3676753,2.2040451221407413,BBQ Joint
M4X,"Cabbagetown, St. James Town",43.667967,-79.3676753,2.2040451221407413,Coffee Shop
M4X,"Cabbagetown, St. James Town",43.667967,-79.3676753,2.2040451221407413,Coffee Shop
M4X,"Cabbagetown, St. James Town",43.667967,-79.3676753,2.2040451221407413,Indian Restaurant
M4X,"Cabbagetown, St. James Town",43.667967,-79.3676753,2.2040451221407413,Coffee Shop
M4X,"Cabbagetown, St. James Town",43.667967,-79.3676753,2.2040451221407413,Café
M4X,"Cabbagetown, St. James Town",43.667967,-79.3676753,2.2040451221407413,Café
M4X,"Cabbagetown, St. James Town",43.667967,-79.3676753,2.2040451221407413,Vegetarian / Vegan Restaurant
M4X,"Cabbagetown, St. James Town",43.667967,-79.3676753,2.2040451221407413,Thai Restaurant
M4X,"Cabbagetown, St. James Town",43.667967,-79.3676753,2.2040451221407413,Bistro
M4X,"Cabbagetown, St. James Town",43.667967,-79.3676753,2.2040451221407413,American Restaurant
M4X,"Cabbagetown, St. James Town",43.667967,-79.3676753,2.2040451221407413,Restaurant
M4X,"Cabbagetown, St. James Town",43.667967,-79.3676753,2.2040451221407413,Pizza Place
M4X,"Cabbagetown, St. James Town",43.667967,-79.3676753,2.2040451221407413,Café
M4X,"Cabbagetown, St. James Town",43.667967,-79.3676753,2.2040451221407413,Ice Cream Shop
M4X,"Cabbagetown, St. James Town",43.667967,-79.3676753,2.2040451221407413,Italian Restaurant
M4X,"Cabbagetown, St. James Town",43.667967,-79.3676753,2.2040451221407413,Sandwich Place
M4X,"Cabbagetown, St. James Town",43.667967,-79.3676753,2.2040451221407413,Japanese Restaurant
M4X,"Cabbagetown, St. James Town",43.667967,-79.3676753,2.2040451221407413,Sushi Restaurant
M4X,"Cabbagetown, St. James Town",43.667967,-79.3676753,2.2040451221407413,Deli / Bodega
M4X,"Cabbagetown, St. James Town",43.667967,-79.3676753,2.2040451221407413,Butcher
M4Y,Church and Wellesley,43.6658599,-79.38315990000001,1.3596667249181087,Coffee Shop
M4Y,Church and Wellesley,43.6658599,-79.38315990000001,1.3596667249181087,Fast Food Restaurant
M4Y,Church and Wellesley,43.6658599,-79.38315990000001,1.3596667249181087,Bookstore
M4Y,Church and Wellesley,43.6658599,-79.38315990000001,1.3596667249181087,Theme Restaurant
M4Y,Church and Wellesley,43.6658599,-79.38315990000001,1.3596667249181087,Coffee Shop
M4Y,Church and Wellesley,43.6658599,-79.38315990000001,1.3596667249181087,Bubble Tea Shop
M4Y,Church and Wellesley,43.6658599,-79.38315990000001,1.3596667249181087,Coffee Shop
M4Y,Church and Wellesley,43.6658599,-79.38315990000001,1.3596667249181087,Salad Place
M4Y,Church and Wellesley,43.6658599,-79.38315990000001,1.3596667249181087,Breakfast Spot
M4Y,Church and Wellesley,43.6658599,-79.38315990000001,1.3596667249181087,Mexican Restaurant
M4Y,Church and Wellesley,43.6658599,-79.38315990000001,1.3596667249181087,Halal Restaurant
M4Y,Church and Wellesley,43.6658599,-79.38315990000001,1.3596667249181087,Ice Cream Shop
M4Y,Church and Wellesley,43.6658599,-79.38315990000001,1.3596667249181087,Coffee Shop
M4Y,Church and Wellesley,43.6658599,-79.38315990000001,1.3596667249181087,Pizza Place
M4Y,Church and Wellesley,43.6658599,-79.38315990000001,1.3596667249181087,Chinese Restaurant
M4Y,Church and Wellesley,43.6658599,-79.38315990000001,1.3596667249181087,Turkish Restaurant
M4Y,Church and Wellesley,43.6658599,-79.38315990000001,1.3596667249181087,Fried Chicken Joint
M4Y,Church and Wellesley,43.6658599,-79.38315990000001,1.3596667249181087,Sushi Restaurant
M4Y,Church and Wellesley,43.6658599,-79.38315990000001,1.3596667249181087,Japanese Restaurant
M4Y,Church and Wellesley,43.6658599,-79.38315990000001,1.3596667249181087,Middle Eastern Restaurant
M4Y,Church and Wellesley,43.6658599,-79.38315990000001,1.3596667249181087,Gastropub
M4Y,Church and Wellesley,43.6658599,-79.38315990000001,1.3596667249181087,Vietnamese Restaurant
M4Y,Church and Wellesley,43.6658599,-79.38315990000001,1.3596667249181087,Coffee Shop
M4Y,Church and Wellesley,43.6658599,-79.38315990000001,1.3596667249181087,Fast Food Restaurant
M4Y,Church and Wellesley,43.6658599,-79.38315990000001,1.3596667249181087,Italian Restaurant
M4Y,Church and Wellesley,43.6658599,-79.38315990000001,1.3596667249181087,Coffee Shop
M4Y,Church and Wellesley,43.6658599,-79.38315990000001,1.3596667249181087,Bubble Tea Shop
M4Y,Church and Wellesley,43.6658599,-79.38315990000001,1.3596667249181087,Middle Eastern Restaurant
M4Y,Church and Wellesley,43.6658599,-79.38315990000001,1.3596667249181087,Coffee Shop
M4Y,Church and Wellesley,43.6658599,-79.38315990000001,1.3596667249181087,Gay Bar
M4Y,Church and Wellesley,43.6658599,-79.38315990000001,1.3596667249181087,Ramen Restaurant
M4Y,Church and Wellesley,43.6658599,-79.38315990000001,1.3596667249181087,Indian Restaurant
M4Y,Church and Wellesley,43.6658599,-79.38315990000001,1.3596667249181087,Ramen Restaurant
M4Y,Church and Wellesley,43.6658599,-79.38315990000001,1.3596667249181087,Coffee Shop
M4Y,Church and Wellesley,43.6658599,-79.38315990000001,1.3596667249181087,Coffee Shop
M4Y,Church and Wellesley,43.6658599,-79.38315990000001,1.3596667249181087,Fast Food Restaurant
M4Y,Church and Wellesley,43.6658599,-79.38315990000001,1.3596667249181087,Burrito Place
M4Y,Church and Wellesley,43.6658599,-79.38315990000001,1.3596667249181087,Bubble Tea Shop
M4Y,Church and Wellesley,43.6658599,-79.38315990000001,1.3596667249181087,Café
M4Y,Church and Wellesley,43.6658599,-79.38315990000001,1.3596667249181087,Wings Joint
M4Y,Church and Wellesley,43.6658599,-79.38315990000001,1.3596667249181087,Ethiopian Restaurant
M4Y,Church and Wellesley,43.6658599,-79.38315990000001,1.3596667249181087,Restaurant
M4Y,Church and Wellesley,43.6658599,-79.38315990000001,1.3596667249181087,Sushi Restaurant
M4Y,Church and Wellesley,43.6658599,-79.38315990000001,1.3596667249181087,Creperie
M4Y,Church and Wellesley,43.6658599,-79.38315990000001,1.3596667249181087,Pizza Place
M4Y,Church and Wellesley,43.6658599,-79.38315990000001,1.3596667249181087,Restaurant
M4Y,Church and Wellesley,43.6658599,-79.38315990000001,1.3596667249181087,Ramen Restaurant
M4Y,Church and Wellesley,43.6658599,-79.38315990000001,1.3596667249181087,Seafood Restaurant
M4Y,Church and Wellesley,43.6658599,-79.38315990000001,1.3596667249181087,Asian Restaurant
M4Y,Church and Wellesley,43.6658599,-79.38315990000001,1.3596667249181087,Sushi Restaurant
M5A,"Harbourfront, Regent Park",43.6542599,-79.3606359,2.125943452843515,Coffee Shop
M5A,"Harbourfront, Regent Park",43.6542599,-79.3606359,2.125943452843515,Breakfast Spot
M5A,"Harbourfront, Regent Park",43.6542599,-79.3606359,2.125943452843515,Coffee Shop
M5A,"Harbourfront, Regent Park",43.6542599,-79.3606359,2.125943452843515,Sandwich Place
M5A,"Harbourfront, Regent Park",43.6542599,-79.3606359,2.125943452843515,Bakery
M5A,"Harbourfront, Regent Park",43.6542599,-79.3606359,2.125943452843515,Mediterranean Restaurant
M5A,"Harbourfront, Regent Park",43.6542599,-79.3606359,2.125943452843515,Café
M5A,"Harbourfront, Regent Park",43.6542599,-79.3606359,2.125943452843515,Italian Restaurant
M5A,"Harbourfront, Regent Park",43.6542599,-79.3606359,2.125943452843515,Gastropub
M5A,"Harbourfront, Regent Park",43.6542599,-79.3606359,2.125943452843515,Breakfast Spot
M5A,"Harbourfront, Regent Park",43.6542599,-79.3606359,2.125943452843515,BBQ Joint
M5A,"Harbourfront, Regent Park",43.6542599,-79.3606359,2.125943452843515,Food Truck
M5A,"Harbourfront, Regent Park",43.6542599,-79.3606359,2.125943452843515,Coffee Shop
M5A,"Harbourfront, Regent Park",43.6542599,-79.3606359,2.125943452843515,Coffee Shop
M5A,"Harbourfront, Regent Park",43.6542599,-79.3606359,2.125943452843515,Italian Restaurant
M5A,"Harbourfront, Regent Park",43.6542599,-79.3606359,2.125943452843515,Food
M5A,"Harbourfront, Regent Park",43.6542599,-79.3606359,2.125943452843515,Ethiopian Restaurant
M5A,"Harbourfront, Regent Park",43.6542599,-79.3606359,2.125943452843515,Food Truck
M5A,"Harbourfront, Regent Park",43.6542599,-79.3606359,2.125943452843515,Food Truck
M5A,"Harbourfront, Regent Park",43.6542599,-79.3606359,2.125943452843515,Coffee Shop
M5A,"Harbourfront, Regent Park",43.6542599,-79.3606359,2.125943452843515,Bistro
M5A,"Harbourfront, Regent Park",43.6542599,-79.3606359,2.125943452843515,Deli / Bodega
M5A,"Harbourfront, Regent Park",43.6542599,-79.3606359,2.125943452843515,African Restaurant
M5A,"Harbourfront, Regent Park",43.6542599,-79.3606359,2.125943452843515,Bakery
M5A,"Harbourfront, Regent Park",43.6542599,-79.3606359,2.125943452843515,Sushi Restaurant
M5A,"Harbourfront, Regent Park",43.6542599,-79.3606359,2.125943452843515,Sushi Restaurant
M5A,"Harbourfront, Regent Park",43.6542599,-79.3606359,2.125943452843515,Coffee Shop
M5A,"Harbourfront, Regent Park",43.6542599,-79.3606359,2.125943452843515,Restaurant
M5A,"Harbourfront, Regent Park",43.6542599,-79.3606359,2.125943452843515,Pizza Place
M5A,"Harbourfront, Regent Park",43.6542599,-79.3606359,2.125943452843515,Burger Joint
M5A,"Harbourfront, Regent Park",43.6542599,-79.3606359,2.125943452843515,Pizza Place
M5A,"Harbourfront, Regent Park",43.6542599,-79.3606359,2.125943452843515,Caribbean Restaurant
M5A,"Harbourfront, Regent Park",43.6542599,-79.3606359,2.125943452843515,Breakfast Spot
M5A,"Harbourfront, Regent Park",43.6542599,-79.3606359,2.125943452843515,Ethiopian Restaurant
M5A,"Harbourfront, Regent Park",43.6542599,-79.3606359,2.125943452843515,Tea Room
M5A,"Harbourfront, Regent Park",43.6542599,-79.3606359,2.125943452843515,Ethiopian Restaurant
M5A,"Harbourfront, Regent Park",43.6542599,-79.3606359,2.125943452843515,Ethiopian Restaurant
M5A,"Harbourfront, Regent Park",43.6542599,-79.3606359,2.125943452843515,Sandwich Place
M5A,"Harbourfront, Regent Park",43.6542599,-79.3606359,2.125943452843515,Ethiopian Restaurant
M5A,"Harbourfront, Regent Park",43.6542599,-79.3606359,2.125943452843515,Greek Restaurant
M5A,"Harbourfront, Regent Park",43.6542599,-79.3606359,2.125943452843515,Pizza Place
M5A,"Harbourfront, Regent Park",43.6542599,-79.3606359,2.125943452843515,Pizza Place
M5A,"Harbourfront, Regent Park",43.6542599,-79.3606359,2.125943452843515,Chinese Restaurant
M5A,"Harbourfront, Regent Park",43.6542599,-79.3606359,2.125943452843515,Thai Restaurant
M5A,"Harbourfront, Regent Park",43.6542599,-79.3606359,2.125943452843515,Pub
M5A,"Harbourfront, Regent Park",43.6542599,-79.3606359,2.125943452843515,Café
M5B,"Garden District, Ryerson",43.6571618,-79.37893709999999,0.7508504557686148,Coffee Shop
M5B,"Garden District, Ryerson",43.6571618,-79.37893709999999,0.7508504557686148,Coffee Shop
M5B,"Garden District, Ryerson",43.6571618,-79.37893709999999,0.7508504557686148,Coffee Shop
M5B,"Garden District, Ryerson",43.6571618,-79.37893709999999,0.7508504557686148,Diner
M5B,"Garden District, Ryerson",43.6571618,-79.37893709999999,0.7508504557686148,Convenience Store
M5B,"Garden District, Ryerson",43.6571618,-79.37893709999999,0.7508504557686148,Bakery
M5B,"Garden District, Ryerson",43.6571618,-79.37893709999999,0.7508504557686148,Mexican Restaurant
M5B,"Garden District, Ryerson",43.6571618,-79.37893709999999,0.7508504557686148,Restaurant
M5B,"Garden District, Ryerson",43.6571618,-79.37893709999999,0.7508504557686148,Fast Food Restaurant
M5B,"Garden District, Ryerson",43.6571618,-79.37893709999999,0.7508504557686148,Bubble Tea Shop
M5B,"Garden District, Ryerson",43.6571618,-79.37893709999999,0.7508504557686148,Bagel Shop
M5B,"Garden District, Ryerson",43.6571618,-79.37893709999999,0.7508504557686148,Ice Cream Shop
M5B,"Garden District, Ryerson",43.6571618,-79.37893709999999,0.7508504557686148,Coffee Shop
M5B,"Garden District, Ryerson",43.6571618,-79.37893709999999,0.7508504557686148,Ramen Restaurant
M5B,"Garden District, Ryerson",43.6571618,-79.37893709999999,0.7508504557686148,Burger Joint
M5B,"Garden District, Ryerson",43.6571618,-79.37893709999999,0.7508504557686148,Food Court
M5B,"Garden District, Ryerson",43.6571618,-79.37893709999999,0.7508504557686148,Thai Restaurant
M5B,"Garden District, Ryerson",43.6571618,-79.37893709999999,0.7508504557686148,Grocery Store
M5B,"Garden District, Ryerson",43.6571618,-79.37893709999999,0.7508504557686148,Pizza Place
M5B,"Garden District, Ryerson",43.6571618,-79.37893709999999,0.7508504557686148,Fried Chicken Joint
M5B,"Garden District, Ryerson",43.6571618,-79.37893709999999,0.7508504557686148,Café
M5B,"Garden District, Ryerson",43.6571618,-79.37893709999999,0.7508504557686148,Middle Eastern Restaurant
M5B,"Garden District, Ryerson",43.6571618,-79.37893709999999,0.7508504557686148,Fast Food Restaurant
M5B,"Garden District, Ryerson",43.6571618,-79.37893709999999,0.7508504557686148,Middle Eastern Restaurant
M5B,"Garden District, Ryerson",43.6571618,-79.37893709999999,0.7508504557686148,Coffee Shop
M5B,"Garden District, Ryerson",43.6571618,-79.37893709999999,0.7508504557686148,Restaurant
M5B,"Garden District, Ryerson",43.6571618,-79.37893709999999,0.7508504557686148,Coffee Shop
M5B,"Garden District, Ryerson",43.6571618,-79.37893709999999,0.7508504557686148,Food Court
M5B,"Garden District, Ryerson",43.6571618,-79.37893709999999,0.7508504557686148,Coffee Shop
M5B,"Garden District, Ryerson",43.6571618,-79.37893709999999,0.7508504557686148,Vegetarian / Vegan Restaurant
M5B,"Garden District, Ryerson",43.6571618,-79.37893709999999,0.7508504557686148,Fast Food Restaurant
M5B,"Garden District, Ryerson",43.6571618,-79.37893709999999,0.7508504557686148,Sandwich Place
M5B,"Garden District, Ryerson",43.6571618,-79.37893709999999,0.7508504557686148,Fast Food Restaurant
M5B,"Garden District, Ryerson",43.6571618,-79.37893709999999,0.7508504557686148,Coffee Shop
M5B,"Garden District, Ryerson",43.6571618,-79.37893709999999,0.7508504557686148,Pizza Place
M5B,"Garden District, Ryerson",43.6571618,-79.37893709999999,0.7508504557686148,Sushi Restaurant
M5B,"Garden District, Ryerson",43.6571618,-79.37893709999999,0.7508504557686148,Diner
M5B,"Garden District, Ryerson",43.6571618,-79.37893709999999,0.7508504557686148,Bakery
M5B,"Garden District, Ryerson",43.6571618,-79.37893709999999,0.7508504557686148,Coffee Shop
M5B,"Garden District, Ryerson",43.6571618,-79.37893709999999,0.7508504557686148,Bubble Tea Shop
M5B,"Garden District, Ryerson",43.6571618,-79.37893709999999,0.7508504557686148,Japanese Restaurant
M5B,"Garden District, Ryerson",43.6571618,-79.37893709999999,0.7508504557686148,Middle Eastern Restaurant
M5B,"Garden District, Ryerson",43.6571618,-79.37893709999999,0.7508504557686148,Greek Restaurant
M5B,"Garden District, Ryerson",43.6571618,-79.37893709999999,0.7508504557686148,Italian Restaurant
M5B,"Garden District, Ryerson",43.6571618,-79.37893709999999,0.7508504557686148,Wings Joint
M5B,"Garden District, Ryerson",43.6571618,-79.37893709999999,0.7508504557686148,Restaurant
M5B,"Garden District, Ryerson",43.6571618,-79.37893709999999,0.7508504557686148,Sandwich Place
M5B,"Garden District, Ryerson",43.6571618,-79.37893709999999,0.7508504557686148,American Restaurant
M5B,"Garden District, Ryerson",43.6571618,-79.37893709999999,0.7508504557686148,New American Restaurant
M5B,"Garden District, Ryerson",43.6571618,-79.37893709999999,0.7508504557686148,Steakhouse
M5C,St. James Town,43.6514939,-79.3754179,0.9821429855668504,Coffee Shop
M5C,St. James Town,43.6514939,-79.3754179,0.9821429855668504,Coffee Shop
M5C,St. James Town,43.6514939,-79.3754179,0.9821429855668504,Italian Restaurant
M5C,St. James Town,43.6514939,-79.3754179,0.9821429855668504,Japanese Restaurant
M5C,St. James Town,43.6514939,-79.3754179,0.9821429855668504,Coffee Shop
M5C,St. James Town,43.6514939,-79.3754179,0.9821429855668504,Coffee Shop
M5C,St. James Town,43.6514939,-79.3754179,0.9821429855668504,Fast Food Restaurant
M5C,St. James Town,43.6514939,-79.3754179,0.9821429855668504,Irish Pub
M5C,St. James Town,43.6514939,-79.3754179,0.9821429855668504,Coffee Shop
M5C,St. James Town,43.6514939,-79.3754179,0.9821429855668504,Japanese Restaurant
M5C,St. James Town,43.6514939,-79.3754179,0.9821429855668504,Gastropub
M5C,St. James Town,43.6514939,-79.3754179,0.9821429855668504,Gastropub
M5C,St. James Town,43.6514939,-79.3754179,0.9821429855668504,Coffee Shop
M5C,St. James Town,43.6514939,-79.3754179,0.9821429855668504,Wings Joint
M5C,St. James Town,43.6514939,-79.3754179,0.9821429855668504,Thai Restaurant
M5C,St. James Town,43.6514939,-79.3754179,0.9821429855668504,Café
M5C,St. James Town,43.6514939,-79.3754179,0.9821429855668504,Coffee Shop
M5C,St. James Town,43.6514939,-79.3754179,0.9821429855668504,Café
M5C,St. James Town,43.6514939,-79.3754179,0.9821429855668504,Poke Place
M5C,St. James Town,43.6514939,-79.3754179,0.9821429855668504,Fast Food Restaurant
M5C,St. James Town,43.6514939,-79.3754179,0.9821429855668504,Smoothie Shop
M5C,St. James Town,43.6514939,-79.3754179,0.9821429855668504,Breakfast Spot
M5C,St. James Town,43.6514939,-79.3754179,0.9821429855668504,Office
M5C,St. James Town,43.6514939,-79.3754179,0.9821429855668504,Smoothie Shop
M5C,St. James Town,43.6514939,-79.3754179,0.9821429855668504,Italian Restaurant
M5C,St. James Town,43.6514939,-79.3754179,0.9821429855668504,Salad Place
M5C,St. James Town,43.6514939,-79.3754179,0.9821429855668504,Pizza Place
M5C,St. James Town,43.6514939,-79.3754179,0.9821429855668504,Fast Food Restaurant
M5C,St. James Town,43.6514939,-79.3754179,0.9821429855668504,Italian Restaurant
M5C,St. James Town,43.6514939,-79.3754179,0.9821429855668504,Café
M5C,St. James Town,43.6514939,-79.3754179,0.9821429855668504,Fast Food Restaurant
M5C,St. James Town,43.6514939,-79.3754179,0.9821429855668504,Bakery
M5C,St. James Town,43.6514939,-79.3754179,0.9821429855668504,Mexican Restaurant
M5C,St. James Town,43.6514939,-79.3754179,0.9821429855668504,Vegetarian / Vegan Restaurant
M5C,St. James Town,43.6514939,-79.3754179,0.9821429855668504,Gastropub
M5C,St. James Town,43.6514939,-79.3754179,0.9821429855668504,Restaurant
M5C,St. James Town,43.6514939,-79.3754179,0.9821429855668504,Restaurant
M5C,St. James Town,43.6514939,-79.3754179,0.9821429855668504,Gastropub
M5C,St. James Town,43.6514939,-79.3754179,0.9821429855668504,Sports Bar
M5C,St. James Town,43.6514939,-79.3754179,0.9821429855668504,Coffee Shop
M5C,St. James Town,43.6514939,-79.3754179,0.9821429855668504,New American Restaurant
M5C,St. James Town,43.6514939,-79.3754179,0.9821429855668504,American Restaurant
M5C,St. James Town,43.6514939,-79.3754179,0.9821429855668504,Indian Restaurant
M5C,St. James Town,43.6514939,-79.3754179,0.9821429855668504,Pub
M5C,St. James Town,43.6514939,-79.3754179,0.9821429855668504,Thai Restaurant
M5C,St. James Town,43.6514939,-79.3754179,0.9821429855668504,Beer Bar
M5C,St. James Town,43.6514939,-79.3754179,0.9821429855668504,American Restaurant
M5C,St. James Town,43.6514939,-79.3754179,0.9821429855668504,Latin American Restaurant
M5C,St. James Town,43.6514939,-79.3754179,0.9821429855668504,BBQ Joint
M5C,St. James Town,43.6514939,-79.3754179,0.9821429855668504,Restaurant
M5E,Berczy Park,43.644770799999996,-79.3733064,1.5092159003912582,Food Truck
M5E,Berczy Park,43.644770799999996,-79.3733064,1.5092159003912582,Sandwich Place
M5E,Berczy Park,43.644770799999996,-79.3733064,1.5092159003912582,Grocery Store
M5E,Berczy Park,43.644770799999996,-79.3733064,1.5092159003912582,Grocery Store
M5E,Berczy Park,43.644770799999996,-79.3733064,1.5092159003912582,Coffee Shop
M5E,Berczy Park,43.644770799999996,-79.3733064,1.5092159003912582,Breakfast Spot
M5E,Berczy Park,43.644770799999996,-79.3733064,1.5092159003912582,Coffee Shop
M5E,Berczy Park,43.644770799999996,-79.3733064,1.5092159003912582,Coffee Shop
M5E,Berczy Park,43.644770799999996,-79.3733064,1.5092159003912582,Diner
M5E,Berczy Park,43.644770799999996,-79.3733064,1.5092159003912582,Coffee Shop
M5E,Berczy Park,43.644770799999996,-79.3733064,1.5092159003912582,Sushi Restaurant
M5E,Berczy Park,43.644770799999996,-79.3733064,1.5092159003912582,Mediterranean Restaurant
M5E,Berczy Park,43.644770799999996,-79.3733064,1.5092159003912582,Italian Restaurant
M5E,Berczy Park,43.644770799999996,-79.3733064,1.5092159003912582,Café
M5E,Berczy Park,43.644770799999996,-79.3733064,1.5092159003912582,Sushi Restaurant
M5E,Berczy Park,43.644770799999996,-79.3733064,1.5092159003912582,Sushi Restaurant
M5E,Berczy Park,43.644770799999996,-79.3733064,1.5092159003912582,Coffee Shop
M5E,Berczy Park,43.644770799999996,-79.3733064,1.5092159003912582,Food Truck
M5E,Berczy Park,43.644770799999996,-79.3733064,1.5092159003912582,Vegetarian / Vegan Restaurant
M5E,Berczy Park,43.644770799999996,-79.3733064,1.5092159003912582,Vegetarian / Vegan Restaurant
M5E,Berczy Park,43.644770799999996,-79.3733064,1.5092159003912582,Belgian Restaurant
M5E,Berczy Park,43.644770799999996,-79.3733064,1.5092159003912582,Greek Restaurant
M5E,Berczy Park,43.644770799999996,-79.3733064,1.5092159003912582,North Indian Restaurant
M5E,Berczy Park,43.644770799999996,-79.3733064,1.5092159003912582,Chinese Restaurant
M5E,Berczy Park,43.644770799999996,-79.3733064,1.5092159003912582,Frozen Yogurt Shop
M5E,Berczy Park,43.644770799999996,-79.3733064,1.5092159003912582,Coffee Shop
M5E,Berczy Park,43.644770799999996,-79.3733064,1.5092159003912582,BBQ Joint
M5E,Berczy Park,43.644770799999996,-79.3733064,1.5092159003912582,Breakfast Spot
M5E,Berczy Park,43.644770799999996,-79.3733064,1.5092159003912582,South Indian Restaurant
M5E,Berczy Park,43.644770799999996,-79.3733064,1.5092159003912582,Pub
M5E,Berczy Park,43.644770799999996,-79.3733064,1.5092159003912582,Pub
M5E,Berczy Park,43.644770799999996,-79.3733064,1.5092159003912582,Deli / Bodega
M5E,Berczy Park,43.644770799999996,-79.3733064,1.5092159003912582,Japanese Restaurant
M5E,Berczy Park,43.644770799999996,-79.3733064,1.5092159003912582,Steakhouse
M5E,Berczy Park,43.644770799999996,-79.3733064,1.5092159003912582,Breakfast Spot
M5E,Berczy Park,43.644770799999996,-79.3733064,1.5092159003912582,Bar
M5E,Berczy Park,43.644770799999996,-79.3733064,1.5092159003912582,Moroccan Restaurant
M5E,Berczy Park,43.644770799999996,-79.3733064,1.5092159003912582,Food Truck
M5E,Berczy Park,43.644770799999996,-79.3733064,1.5092159003912582,Café
M5E,Berczy Park,43.644770799999996,-79.3733064,1.5092159003912582,Italian Restaurant
M5E,Berczy Park,43.644770799999996,-79.3733064,1.5092159003912582,Mexican Restaurant
M5E,Berczy Park,43.644770799999996,-79.3733064,1.5092159003912582,Pizza Place
M5E,Berczy Park,43.644770799999996,-79.3733064,1.5092159003912582,Pizza Place
M5E,Berczy Park,43.644770799999996,-79.3733064,1.5092159003912582,Food Truck
M5E,Berczy Park,43.644770799999996,-79.3733064,1.5092159003912582,BBQ Joint
M5E,Berczy Park,43.644770799999996,-79.3733064,1.5092159003912582,Frozen Yogurt Shop
M5E,Berczy Park,43.644770799999996,-79.3733064,1.5092159003912582,Comfort Food Restaurant
M5E,Berczy Park,43.644770799999996,-79.3733064,1.5092159003912582,Moroccan Restaurant
M5G,Central Bay Street,43.6579524,-79.3873826,0.4430461712866038,Coffee Shop
M5G,Central Bay Street,43.6579524,-79.3873826,0.4430461712866038,Coffee Shop
M5G,Central Bay Street,43.6579524,-79.3873826,0.4430461712866038,Bagel Shop
M5G,Central Bay Street,43.6579524,-79.3873826,0.4430461712866038,Coffee Shop
M5G,Central Bay Street,43.6579524,-79.3873826,0.4430461712866038,Coffee Shop
M5G,Central Bay Street,43.6579524,-79.3873826,0.4430461712866038,Food Service
M5G,Central Bay Street,43.6579524,-79.3873826,0.4430461712866038,Coffee Shop
M5G,Central Bay Street,43.6579524,-79.3873826,0.4430461712866038,Coffee Shop
M5G,Central Bay Street,43.6579524,-79.3873826,0.4430461712866038,Café
M5G,Central Bay Street,43.6579524,-79.3873826,0.4430461712866038,Italian Restaurant
M5G,Central Bay Street,43.6579524,-79.3873826,0.4430461712866038,Italian Restaurant
M5G,Central Bay Street,43.6579524,-79.3873826,0.4430461712866038,Coffee Shop
M5G,Central Bay Street,43.6579524,-79.3873826,0.4430461712866038,Coffee Shop
M5G,Central Bay Street,43.6579524,-79.3873826,0.4430461712866038,Food Truck
M5G,Central Bay Street,43.6579524,-79.3873826,0.4430461712866038,Breakfast Spot
M5G,Central Bay Street,43.6579524,-79.3873826,0.4430461712866038,Coffee Shop
M5G,Central Bay Street,43.6579524,-79.3873826,0.4430461712866038,Coffee Shop
M5G,Central Bay Street,43.6579524,-79.3873826,0.4430461712866038,Restaurant
M5G,Central Bay Street,43.6579524,-79.3873826,0.4430461712866038,Juice Bar
M5G,Central Bay Street,43.6579524,-79.3873826,0.4430461712866038,Coffee Shop
M5G,Central Bay Street,43.6579524,-79.3873826,0.4430461712866038,Bubble Tea Shop
M5G,Central Bay Street,43.6579524,-79.3873826,0.4430461712866038,Coffee Shop
M5G,Central Bay Street,43.6579524,-79.3873826,0.4430461712866038,Coffee Shop
M5G,Central Bay Street,43.6579524,-79.3873826,0.4430461712866038,Coffee Shop
M5G,Central Bay Street,43.6579524,-79.3873826,0.4430461712866038,Japanese Restaurant
M5G,Central Bay Street,43.6579524,-79.3873826,0.4430461712866038,Noodle House
M5G,Central Bay Street,43.6579524,-79.3873826,0.4430461712866038,Tea Room
M5G,Central Bay Street,43.6579524,-79.3873826,0.4430461712866038,Japanese Restaurant
M5G,Central Bay Street,43.6579524,-79.3873826,0.4430461712866038,Bar
M5G,Central Bay Street,43.6579524,-79.3873826,0.4430461712866038,Bubble Tea Shop
M5G,Central Bay Street,43.6579524,-79.3873826,0.4430461712866038,Middle Eastern Restaurant
M5G,Central Bay Street,43.6579524,-79.3873826,0.4430461712866038,Modern European Restaurant
M5G,Central Bay Street,43.6579524,-79.3873826,0.4430461712866038,Coffee Shop
M5G,Central Bay Street,43.6579524,-79.3873826,0.4430461712866038,Thai Restaurant
M5G,Central Bay Street,43.6579524,-79.3873826,0.4430461712866038,Bubble Tea Shop
M5G,Central Bay Street,43.6579524,-79.3873826,0.4430461712866038,Pizza Place
M5G,Central Bay Street,43.6579524,-79.3873826,0.4430461712866038,Bubble Tea Shop
M5G,Central Bay Street,43.6579524,-79.3873826,0.4430461712866038,Gastropub
M5G,Central Bay Street,43.6579524,-79.3873826,0.4430461712866038,Sandwich Place
M5G,Central Bay Street,43.6579524,-79.3873826,0.4430461712866038,Tea Room
M5G,Central Bay Street,43.6579524,-79.3873826,0.4430461712866038,Coffee Shop
M5G,Central Bay Street,43.6579524,-79.3873826,0.4430461712866038,Middle Eastern Restaurant
M5G,Central Bay Street,43.6579524,-79.3873826,0.4430461712866038,Sushi Restaurant
M5G,Central Bay Street,43.6579524,-79.3873826,0.4430461712866038,Chinese Restaurant
M5G,Central Bay Street,43.6579524,-79.3873826,0.4430461712866038,Italian Restaurant
M5G,Central Bay Street,43.6579524,-79.3873826,0.4430461712866038,Chinese Restaurant
M5G,Central Bay Street,43.6579524,-79.3873826,0.4430461712866038,Korean Restaurant
M5G,Central Bay Street,43.6579524,-79.3873826,0.4430461712866038,Ice Cream Shop
M5G,Central Bay Street,43.6579524,-79.3873826,0.4430461712866038,Ramen Restaurant
M5G,Central Bay Street,43.6579524,-79.3873826,0.4430461712866038,Ramen Restaurant
M5H,"Adelaide, King, Richmond",43.65057120000001,-79.3845675,0.431663196373186,Food Court
M5H,"Adelaide, King, Richmond",43.65057120000001,-79.3845675,0.431663196373186,Coffee Shop
M5H,"Adelaide, King, Richmond",43.65057120000001,-79.3845675,0.431663196373186,Steakhouse
M5H,"Adelaide, King, Richmond",43.65057120000001,-79.3845675,0.431663196373186,Fried Chicken Joint
M5H,"Adelaide, King, Richmond",43.65057120000001,-79.3845675,0.431663196373186,Coffee Shop
M5H,"Adelaide, King, Richmond",43.65057120000001,-79.3845675,0.431663196373186,Vegetarian / Vegan Restaurant
M5H,"Adelaide, King, Richmond",43.65057120000001,-79.3845675,0.431663196373186,Coffee Shop
M5H,"Adelaide, King, Richmond",43.65057120000001,-79.3845675,0.431663196373186,Coffee Shop
M5H,"Adelaide, King, Richmond",43.65057120000001,-79.3845675,0.431663196373186,Convenience Store
M5H,"Adelaide, King, Richmond",43.65057120000001,-79.3845675,0.431663196373186,Coffee Shop
M5H,"Adelaide, King, Richmond",43.65057120000001,-79.3845675,0.431663196373186,Coffee Shop
M5H,"Adelaide, King, Richmond",43.65057120000001,-79.3845675,0.431663196373186,Greek Restaurant
M5H,"Adelaide, King, Richmond",43.65057120000001,-79.3845675,0.431663196373186,Coffee Shop
M5H,"Adelaide, King, Richmond",43.65057120000001,-79.3845675,0.431663196373186,Bar
M5H,"Adelaide, King, Richmond",43.65057120000001,-79.3845675,0.431663196373186,Coffee Shop
M5H,"Adelaide, King, Richmond",43.65057120000001,-79.3845675,0.431663196373186,Food Court
M5H,"Adelaide, King, Richmond",43.65057120000001,-79.3845675,0.431663196373186,Noodle House
M5H,"Adelaide, King, Richmond",43.65057120000001,-79.3845675,0.431663196373186,Food Court
M5H,"Adelaide, King, Richmond",43.65057120000001,-79.3845675,0.431663196373186,Colombian Restaurant
M5H,"Adelaide, King, Richmond",43.65057120000001,-79.3845675,0.431663196373186,Deli / Bodega
M5H,"Adelaide, King, Richmond",43.65057120000001,-79.3845675,0.431663196373186,Gastropub
M5H,"Adelaide, King, Richmond",43.65057120000001,-79.3845675,0.431663196373186,Lounge
M5H,"Adelaide, King, Richmond",43.65057120000001,-79.3845675,0.431663196373186,Pizza Place
M5H,"Adelaide, King, Richmond",43.65057120000001,-79.3845675,0.431663196373186,Asian Restaurant
M5H,"Adelaide, King, Richmond",43.65057120000001,-79.3845675,0.431663196373186,Food Court
M5H,"Adelaide, King, Richmond",43.65057120000001,-79.3845675,0.431663196373186,Restaurant
M5H,"Adelaide, King, Richmond",43.65057120000001,-79.3845675,0.431663196373186,Vegetarian / Vegan Restaurant
M5H,"Adelaide, King, Richmond",43.65057120000001,-79.3845675,0.431663196373186,Café
M5H,"Adelaide, King, Richmond",43.65057120000001,-79.3845675,0.431663196373186,Bar
M5H,"Adelaide, King, Richmond",43.65057120000001,-79.3845675,0.431663196373186,Bubble Tea Shop
M5H,"Adelaide, King, Richmond",43.65057120000001,-79.3845675,0.431663196373186,Restaurant
M5H,"Adelaide, King, Richmond",43.65057120000001,-79.3845675,0.431663196373186,Café
M5H,"Adelaide, King, Richmond",43.65057120000001,-79.3845675,0.431663196373186,Breakfast Spot
M5H,"Adelaide, King, Richmond",43.65057120000001,-79.3845675,0.431663196373186,Deli / Bodega
M5H,"Adelaide, King, Richmond",43.65057120000001,-79.3845675,0.431663196373186,Coffee Shop
M5H,"Adelaide, King, Richmond",43.65057120000001,-79.3845675,0.431663196373186,Jazz Club
M5H,"Adelaide, King, Richmond",43.65057120000001,-79.3845675,0.431663196373186,Pizza Place
M5H,"Adelaide, King, Richmond",43.65057120000001,-79.3845675,0.431663196373186,Ramen Restaurant
M5H,"Adelaide, King, Richmond",43.65057120000001,-79.3845675,0.431663196373186,Coffee Shop
M5H,"Adelaide, King, Richmond",43.65057120000001,-79.3845675,0.431663196373186,Steakhouse
M5H,"Adelaide, King, Richmond",43.65057120000001,-79.3845675,0.431663196373186,Italian Restaurant
M5H,"Adelaide, King, Richmond",43.65057120000001,-79.3845675,0.431663196373186,Burger Joint
M5H,"Adelaide, King, Richmond",43.65057120000001,-79.3845675,0.431663196373186,Chinese Restaurant
M5H,"Adelaide, King, Richmond",43.65057120000001,-79.3845675,0.431663196373186,Gastropub
M5H,"Adelaide, King, Richmond",43.65057120000001,-79.3845675,0.431663196373186,American Restaurant
M5H,"Adelaide, King, Richmond",43.65057120000001,-79.3845675,0.431663196373186,Sushi Restaurant
M5H,"Adelaide, King, Richmond",43.65057120000001,-79.3845675,0.431663196373186,Burger Joint
M5H,"Adelaide, King, Richmond",43.65057120000001,-79.3845675,0.431663196373186,Burger Joint
M5H,"Adelaide, King, Richmond",43.65057120000001,-79.3845675,0.431663196373186,Pub
M5H,"Adelaide, King, Richmond",43.65057120000001,-79.3845675,0.431663196373186,Steakhouse
M5J,"Harbourfront East, Toronto Islands, Union Station",43.6408157,-79.38175229999999,1.5231964126425617,Coffee Shop
M5J,"Harbourfront East, Toronto Islands, Union Station",43.6408157,-79.38175229999999,1.5231964126425617,Coffee Shop
M5J,"Harbourfront East, Toronto Islands, Union Station",43.6408157,-79.38175229999999,1.5231964126425617,Coffee Shop
M5J,"Harbourfront East, Toronto Islands, Union Station",43.6408157,-79.38175229999999,1.5231964126425617,Coffee Shop
M5J,"Harbourfront East, Toronto Islands, Union Station",43.6408157,-79.38175229999999,1.5231964126425617,Fried Chicken Joint
M5J,"Harbourfront East, Toronto Islands, Union Station",43.6408157,-79.38175229999999,1.5231964126425617,Persian Restaurant
M5J,"Harbourfront East, Toronto Islands, Union Station",43.6408157,-79.38175229999999,1.5231964126425617,Food Court
M5J,"Harbourfront East, Toronto Islands, Union Station",43.6408157,-79.38175229999999,1.5231964126425617,Deli / Bodega
M5J,"Harbourfront East, Toronto Islands, Union Station",43.6408157,-79.38175229999999,1.5231964126425617,Food Court
M5J,"Harbourfront East, Toronto Islands, Union Station",43.6408157,-79.38175229999999,1.5231964126425617,Salad Place
M5J,"Harbourfront East, Toronto Islands, Union Station",43.6408157,-79.38175229999999,1.5231964126425617,New American Restaurant
M5J,"Harbourfront East, Toronto Islands, Union Station",43.6408157,-79.38175229999999,1.5231964126425617,Bubble Tea Shop
M5J,"Harbourfront East, Toronto Islands, Union Station",43.6408157,-79.38175229999999,1.5231964126425617,Restaurant
M5J,"Harbourfront East, Toronto Islands, Union Station",43.6408157,-79.38175229999999,1.5231964126425617,Bakery
M5J,"Harbourfront East, Toronto Islands, Union Station",43.6408157,-79.38175229999999,1.5231964126425617,Sports Bar
M5J,"Harbourfront East, Toronto Islands, Union Station",43.6408157,-79.38175229999999,1.5231964126425617,Salad Place
M5J,"Harbourfront East, Toronto Islands, Union Station",43.6408157,-79.38175229999999,1.5231964126425617,Coffee Shop
M5J,"Harbourfront East, Toronto Islands, Union Station",43.6408157,-79.38175229999999,1.5231964126425617,Steakhouse
M5J,"Harbourfront East, Toronto Islands, Union Station",43.6408157,-79.38175229999999,1.5231964126425617,Pizza Place
M5J,"Harbourfront East, Toronto Islands, Union Station",43.6408157,-79.38175229999999,1.5231964126425617,Sandwich Place
M5J,"Harbourfront East, Toronto Islands, Union Station",43.6408157,-79.38175229999999,1.5231964126425617,Sandwich Place
M5J,"Harbourfront East, Toronto Islands, Union Station",43.6408157,-79.38175229999999,1.5231964126425617,Coffee Shop
M5J,"Harbourfront East, Toronto Islands, Union Station",43.6408157,-79.38175229999999,1.5231964126425617,Deli / Bodega
M5J,"Harbourfront East, Toronto Islands, Union Station",43.6408157,-79.38175229999999,1.5231964126425617,Fast Food Restaurant
M5J,"Harbourfront East, Toronto Islands, Union Station",43.6408157,-79.38175229999999,1.5231964126425617,Sports Bar
M5J,"Harbourfront East, Toronto Islands, Union Station",43.6408157,-79.38175229999999,1.5231964126425617,Italian Restaurant
M5J,"Harbourfront East, Toronto Islands, Union Station",43.6408157,-79.38175229999999,1.5231964126425617,Coffee Shop
M5J,"Harbourfront East, Toronto Islands, Union Station",43.6408157,-79.38175229999999,1.5231964126425617,Ice Cream Shop
M5J,"Harbourfront East, Toronto Islands, Union Station",43.6408157,-79.38175229999999,1.5231964126425617,Pizza Place
M5J,"Harbourfront East, Toronto Islands, Union Station",43.6408157,-79.38175229999999,1.5231964126425617,Café
M5J,"Harbourfront East, Toronto Islands, Union Station",43.6408157,-79.38175229999999,1.5231964126425617,Bistro
M5J,"Harbourfront East, Toronto Islands, Union Station",43.6408157,-79.38175229999999,1.5231964126425617,Greek Restaurant
M5J,"Harbourfront East, Toronto Islands, Union Station",43.6408157,-79.38175229999999,1.5231964126425617,Chinese Restaurant
M5J,"Harbourfront East, Toronto Islands, Union Station",43.6408157,-79.38175229999999,1.5231964126425617,Restaurant
M5J,"Harbourfront East, Toronto Islands, Union Station",43.6408157,-79.38175229999999,1.5231964126425617,Vegetarian / Vegan Restaurant
M5J,"Harbourfront East, Toronto Islands, Union Station",43.6408157,-79.38175229999999,1.5231964126425617,Café
M5J,"Harbourfront East, Toronto Islands, Union Station",43.6408157,-79.38175229999999,1.5231964126425617,Coffee Shop
M5J,"Harbourfront East, Toronto Islands, Union Station",43.6408157,-79.38175229999999,1.5231964126425617,Indian Restaurant
M5J,"Harbourfront East, Toronto Islands, Union Station",43.6408157,-79.38175229999999,1.5231964126425617,Mediterranean Restaurant
M5J,"Harbourfront East, Toronto Islands, Union Station",43.6408157,-79.38175229999999,1.5231964126425617,Coffee Shop
M5J,"Harbourfront East, Toronto Islands, Union Station",43.6408157,-79.38175229999999,1.5231964126425617,Japanese Restaurant
M5J,"Harbourfront East, Toronto Islands, Union Station",43.6408157,-79.38175229999999,1.5231964126425617,Chinese Restaurant
M5J,"Harbourfront East, Toronto Islands, Union Station",43.6408157,-79.38175229999999,1.5231964126425617,Pizza Place
M5J,"Harbourfront East, Toronto Islands, Union Station",43.6408157,-79.38175229999999,1.5231964126425617,Ice Cream Shop
M5J,"Harbourfront East, Toronto Islands, Union Station",43.6408157,-79.38175229999999,1.5231964126425617,Sports Bar
M5J,"Harbourfront East, Toronto Islands, Union Station",43.6408157,-79.38175229999999,1.5231964126425617,Fried Chicken Joint
M5J,"Harbourfront East, Toronto Islands, Union Station",43.6408157,-79.38175229999999,1.5231964126425617,Restaurant
M5J,"Harbourfront East, Toronto Islands, Union Station",43.6408157,-79.38175229999999,1.5231964126425617,Chinese Restaurant
M5J,"Harbourfront East, Toronto Islands, Union Station",43.6408157,-79.38175229999999,1.5231964126425617,Seafood Restaurant
M5J,"Harbourfront East, Toronto Islands, Union Station",43.6408157,-79.38175229999999,1.5231964126425617,Restaurant
M5K,"Design Exchange, Toronto Dominion Centre",43.6471768,-79.38157640000001,0.8776766955061264,Coffee Shop
M5K,"Design Exchange, Toronto Dominion Centre",43.6471768,-79.38157640000001,0.8776766955061264,Deli / Bodega
M5K,"Design Exchange, Toronto Dominion Centre",43.6471768,-79.38157640000001,0.8776766955061264,Grocery Store
M5K,"Design Exchange, Toronto Dominion Centre",43.6471768,-79.38157640000001,0.8776766955061264,Coffee Shop
M5K,"Design Exchange, Toronto Dominion Centre",43.6471768,-79.38157640000001,0.8776766955061264,Coffee Shop
M5K,"Design Exchange, Toronto Dominion Centre",43.6471768,-79.38157640000001,0.8776766955061264,Deli / Bodega
M5K,"Design Exchange, Toronto Dominion Centre",43.6471768,-79.38157640000001,0.8776766955061264,Coffee Shop
M5K,"Design Exchange, Toronto Dominion Centre",43.6471768,-79.38157640000001,0.8776766955061264,Coffee Shop
M5K,"Design Exchange, Toronto Dominion Centre",43.6471768,-79.38157640000001,0.8776766955061264,Coffee Shop
M5K,"Design Exchange, Toronto Dominion Centre",43.6471768,-79.38157640000001,0.8776766955061264,Café
M5K,"Design Exchange, Toronto Dominion Centre",43.6471768,-79.38157640000001,0.8776766955061264,Restaurant
M5K,"Design Exchange, Toronto Dominion Centre",43.6471768,-79.38157640000001,0.8776766955061264,Bubble Tea Shop
M5K,"Design Exchange, Toronto Dominion Centre",43.6471768,-79.38157640000001,0.8776766955061264,Coffee Shop
M5K,"Design Exchange, Toronto Dominion Centre",43.6471768,-79.38157640000001,0.8776766955061264,Food Court
M5K,"Design Exchange, Toronto Dominion Centre",43.6471768,-79.38157640000001,0.8776766955061264,Coffee Shop
M5K,"Design Exchange, Toronto Dominion Centre",43.6471768,-79.38157640000001,0.8776766955061264,Coffee Shop
M5K,"Design Exchange, Toronto Dominion Centre",43.6471768,-79.38157640000001,0.8776766955061264,Bakery
M5K,"Design Exchange, Toronto Dominion Centre",43.6471768,-79.38157640000001,0.8776766955061264,Food Stand
M5K,"Design Exchange, Toronto Dominion Centre",43.6471768,-79.38157640000001,0.8776766955061264,Coffee Shop
M5K,"Design Exchange, Toronto Dominion Centre",43.6471768,-79.38157640000001,0.8776766955061264,Coffee Shop
M5K,"Design Exchange, Toronto Dominion Centre",43.6471768,-79.38157640000001,0.8776766955061264,Cafeteria
M5K,"Design Exchange, Toronto Dominion Centre",43.6471768,-79.38157640000001,0.8776766955061264,Food Court
M5K,"Design Exchange, Toronto Dominion Centre",43.6471768,-79.38157640000001,0.8776766955061264,Bar
M5K,"Design Exchange, Toronto Dominion Centre",43.6471768,-79.38157640000001,0.8776766955061264,Deli / Bodega
M5K,"Design Exchange, Toronto Dominion Centre",43.6471768,-79.38157640000001,0.8776766955061264,Coffee Shop
M5K,"Design Exchange, Toronto Dominion Centre",43.6471768,-79.38157640000001,0.8776766955061264,Café
M5K,"Design Exchange, Toronto Dominion Centre",43.6471768,-79.38157640000001,0.8776766955061264,Café
M5K,"Design Exchange, Toronto Dominion Centre",43.6471768,-79.38157640000001,0.8776766955061264,Hotel Bar
M5K,"Design Exchange, Toronto Dominion Centre",43.6471768,-79.38157640000001,0.8776766955061264,Gastropub
M5K,"Design Exchange, Toronto Dominion Centre",43.6471768,-79.38157640000001,0.8776766955061264,Japanese Restaurant
M5K,"Design Exchange, Toronto Dominion Centre",43.6471768,-79.38157640000001,0.8776766955061264,Restaurant
M5K,"Design Exchange, Toronto Dominion Centre",43.6471768,-79.38157640000001,0.8776766955061264,Fried Chicken Joint
M5K,"Design Exchange, Toronto Dominion Centre",43.6471768,-79.38157640000001,0.8776766955061264,Mexican Restaurant
M5K,"Design Exchange, Toronto Dominion Centre",43.6471768,-79.38157640000001,0.8776766955061264,Restaurant
M5K,"Design Exchange, Toronto Dominion Centre",43.6471768,-79.38157640000001,0.8776766955061264,Japanese Restaurant
M5K,"Design Exchange, Toronto Dominion Centre",43.6471768,-79.38157640000001,0.8776766955061264,Fast Food Restaurant
M5K,"Design Exchange, Toronto Dominion Centre",43.6471768,-79.38157640000001,0.8776766955061264,American Restaurant
M5K,"Design Exchange, Toronto Dominion Centre",43.6471768,-79.38157640000001,0.8776766955061264,Gastropub
M5K,"Design Exchange, Toronto Dominion Centre",43.6471768,-79.38157640000001,0.8776766955061264,American Restaurant
M5K,"Design Exchange, Toronto Dominion Centre",43.6471768,-79.38157640000001,0.8776766955061264,Fast Food Restaurant
M5K,"Design Exchange, Toronto Dominion Centre",43.6471768,-79.38157640000001,0.8776766955061264,Italian Restaurant
M5K,"Design Exchange, Toronto Dominion Centre",43.6471768,-79.38157640000001,0.8776766955061264,Food Court
M5K,"Design Exchange, Toronto Dominion Centre",43.6471768,-79.38157640000001,0.8776766955061264,Bar
M5K,"Design Exchange, Toronto Dominion Centre",43.6471768,-79.38157640000001,0.8776766955061264,Coffee Shop
M5K,"Design Exchange, Toronto Dominion Centre",43.6471768,-79.38157640000001,0.8776766955061264,Bar
M5K,"Design Exchange, Toronto Dominion Centre",43.6471768,-79.38157640000001,0.8776766955061264,Restaurant
M5K,"Design Exchange, Toronto Dominion Centre",43.6471768,-79.38157640000001,0.8776766955061264,Breakfast Spot
M5K,"Design Exchange, Toronto Dominion Centre",43.6471768,-79.38157640000001,0.8776766955061264,American Restaurant
M5K,"Design Exchange, Toronto Dominion Centre",43.6471768,-79.38157640000001,0.8776766955061264,Pizza Place
M5L,"Commerce Court, Victoria Hotel",43.6481985,-79.37981690000001,0.8711756877940765,Coffee Shop
M5L,"Commerce Court, Victoria Hotel",43.6481985,-79.37981690000001,0.8711756877940765,Coffee Shop
M5L,"Commerce Court, Victoria Hotel",43.6481985,-79.37981690000001,0.8711756877940765,Coffee Shop
M5L,"Commerce Court, Victoria Hotel",43.6481985,-79.37981690000001,0.8711756877940765,Grocery Store
M5L,"Commerce Court, Victoria Hotel",43.6481985,-79.37981690000001,0.8711756877940765,Coffee Shop
M5L,"Commerce Court, Victoria Hotel",43.6481985,-79.37981690000001,0.8711756877940765,Coffee Shop
M5L,"Commerce Court, Victoria Hotel",43.6481985,-79.37981690000001,0.8711756877940765,Café
M5L,"Commerce Court, Victoria Hotel",43.6481985,-79.37981690000001,0.8711756877940765,Deli / Bodega
M5L,"Commerce Court, Victoria Hotel",43.6481985,-79.37981690000001,0.8711756877940765,Coffee Shop
M5L,"Commerce Court, Victoria Hotel",43.6481985,-79.37981690000001,0.8711756877940765,Bubble Tea Shop
M5L,"Commerce Court, Victoria Hotel",43.6481985,-79.37981690000001,0.8711756877940765,Coffee Shop
M5L,"Commerce Court, Victoria Hotel",43.6481985,-79.37981690000001,0.8711756877940765,Office
M5L,"Commerce Court, Victoria Hotel",43.6481985,-79.37981690000001,0.8711756877940765,Food Court
M5L,"Commerce Court, Victoria Hotel",43.6481985,-79.37981690000001,0.8711756877940765,Coffee Shop
M5L,"Commerce Court, Victoria Hotel",43.6481985,-79.37981690000001,0.8711756877940765,Coffee Shop
M5L,"Commerce Court, Victoria Hotel",43.6481985,-79.37981690000001,0.8711756877940765,Restaurant
M5L,"Commerce Court, Victoria Hotel",43.6481985,-79.37981690000001,0.8711756877940765,Coffee Shop
M5L,"Commerce Court, Victoria Hotel",43.6481985,-79.37981690000001,0.8711756877940765,Japanese Restaurant
M5L,"Commerce Court, Victoria Hotel",43.6481985,-79.37981690000001,0.8711756877940765,Food Court
M5L,"Commerce Court, Victoria Hotel",43.6481985,-79.37981690000001,0.8711756877940765,Coffee Shop
M5L,"Commerce Court, Victoria Hotel",43.6481985,-79.37981690000001,0.8711756877940765,Deli / Bodega
M5L,"Commerce Court, Victoria Hotel",43.6481985,-79.37981690000001,0.8711756877940765,Café
M5L,"Commerce Court, Victoria Hotel",43.6481985,-79.37981690000001,0.8711756877940765,Cafeteria
M5L,"Commerce Court, Victoria Hotel",43.6481985,-79.37981690000001,0.8711756877940765,Coffee Shop
M5L,"Commerce Court, Victoria Hotel",43.6481985,-79.37981690000001,0.8711756877940765,Restaurant
M5L,"Commerce Court, Victoria Hotel",43.6481985,-79.37981690000001,0.8711756877940765,Convenience Store
M5L,"Commerce Court, Victoria Hotel",43.6481985,-79.37981690000001,0.8711756877940765,Coffee Shop
M5L,"Commerce Court, Victoria Hotel",43.6481985,-79.37981690000001,0.8711756877940765,Café
M5L,"Commerce Court, Victoria Hotel",43.6481985,-79.37981690000001,0.8711756877940765,Japanese Restaurant
M5L,"Commerce Court, Victoria Hotel",43.6481985,-79.37981690000001,0.8711756877940765,Fast Food Restaurant
M5L,"Commerce Court, Victoria Hotel",43.6481985,-79.37981690000001,0.8711756877940765,Coffee Shop
M5L,"Commerce Court, Victoria Hotel",43.6481985,-79.37981690000001,0.8711756877940765,Deli / Bodega
M5L,"Commerce Court, Victoria Hotel",43.6481985,-79.37981690000001,0.8711756877940765,Coffee Shop
M5L,"Commerce Court, Victoria Hotel",43.6481985,-79.37981690000001,0.8711756877940765,Coffee Shop
M5L,"Commerce Court, Victoria Hotel",43.6481985,-79.37981690000001,0.8711756877940765,Gastropub
M5L,"Commerce Court, Victoria Hotel",43.6481985,-79.37981690000001,0.8711756877940765,Gastropub
M5L,"Commerce Court, Victoria Hotel",43.6481985,-79.37981690000001,0.8711756877940765,Fast Food Restaurant
M5L,"Commerce Court, Victoria Hotel",43.6481985,-79.37981690000001,0.8711756877940765,Irish Pub
M5L,"Commerce Court, Victoria Hotel",43.6481985,-79.37981690000001,0.8711756877940765,Breakfast Spot
M5L,"Commerce Court, Victoria Hotel",43.6481985,-79.37981690000001,0.8711756877940765,Bar
M5L,"Commerce Court, Victoria Hotel",43.6481985,-79.37981690000001,0.8711756877940765,Food Court
M5L,"Commerce Court, Victoria Hotel",43.6481985,-79.37981690000001,0.8711756877940765,Restaurant
M5L,"Commerce Court, Victoria Hotel",43.6481985,-79.37981690000001,0.8711756877940765,Gastropub
M5L,"Commerce Court, Victoria Hotel",43.6481985,-79.37981690000001,0.8711756877940765,Bar
M5L,"Commerce Court, Victoria Hotel",43.6481985,-79.37981690000001,0.8711756877940765,Bakery
M5L,"Commerce Court, Victoria Hotel",43.6481985,-79.37981690000001,0.8711756877940765,Italian Restaurant
M5L,"Commerce Court, Victoria Hotel",43.6481985,-79.37981690000001,0.8711756877940765,Bar
M5L,"Commerce Court, Victoria Hotel",43.6481985,-79.37981690000001,0.8711756877940765,Restaurant
M5L,"Commerce Court, Victoria Hotel",43.6481985,-79.37981690000001,0.8711756877940765,New American Restaurant
M5L,"Commerce Court, Victoria Hotel",43.6481985,-79.37981690000001,0.8711756877940765,American Restaurant
M5M,"Bedford Park, Lawrence Manor East",43.7332825,-79.4197497,9.181305462777136,Sushi Restaurant
M5M,"Bedford Park, Lawrence Manor East",43.7332825,-79.4197497,9.181305462777136,Jewish Restaurant
M5M,"Bedford Park, Lawrence Manor East",43.7332825,-79.4197497,9.181305462777136,Ice Cream Shop
M5M,"Bedford Park, Lawrence Manor East",43.7332825,-79.4197497,9.181305462777136,Coffee Shop
M5M,"Bedford Park, Lawrence Manor East",43.7332825,-79.4197497,9.181305462777136,Fast Food Restaurant
M5M,"Bedford Park, Lawrence Manor East",43.7332825,-79.4197497,9.181305462777136,Breakfast Spot
M5M,"Bedford Park, Lawrence Manor East",43.7332825,-79.4197497,9.181305462777136,Coffee Shop
M5M,"Bedford Park, Lawrence Manor East",43.7332825,-79.4197497,9.181305462777136,Vietnamese Restaurant
M5M,"Bedford Park, Lawrence Manor East",43.7332825,-79.4197497,9.181305462777136,Cupcake Shop
M5M,"Bedford Park, Lawrence Manor East",43.7332825,-79.4197497,9.181305462777136,Juice Bar
M5M,"Bedford Park, Lawrence Manor East",43.7332825,-79.4197497,9.181305462777136,Japanese Restaurant
M5M,"Bedford Park, Lawrence Manor East",43.7332825,-79.4197497,9.181305462777136,Italian Restaurant
M5M,"Bedford Park, Lawrence Manor East",43.7332825,-79.4197497,9.181305462777136,Caribbean Restaurant
M5M,"Bedford Park, Lawrence Manor East",43.7332825,-79.4197497,9.181305462777136,Sandwich Place
M5M,"Bedford Park, Lawrence Manor East",43.7332825,-79.4197497,9.181305462777136,Italian Restaurant
M5M,"Bedford Park, Lawrence Manor East",43.7332825,-79.4197497,9.181305462777136,Italian Restaurant
M5M,"Bedford Park, Lawrence Manor East",43.7332825,-79.4197497,9.181305462777136,Sandwich Place
M5M,"Bedford Park, Lawrence Manor East",43.7332825,-79.4197497,9.181305462777136,Comfort Food Restaurant
M5M,"Bedford Park, Lawrence Manor East",43.7332825,-79.4197497,9.181305462777136,Restaurant
M5M,"Bedford Park, Lawrence Manor East",43.7332825,-79.4197497,9.181305462777136,Sushi Restaurant
M5M,"Bedford Park, Lawrence Manor East",43.7332825,-79.4197497,9.181305462777136,Sushi Restaurant
M5M,"Bedford Park, Lawrence Manor East",43.7332825,-79.4197497,9.181305462777136,Cupcake Shop
M5M,"Bedford Park, Lawrence Manor East",43.7332825,-79.4197497,9.181305462777136,Fast Food Restaurant
M5M,"Bedford Park, Lawrence Manor East",43.7332825,-79.4197497,9.181305462777136,Sushi Restaurant
M5M,"Bedford Park, Lawrence Manor East",43.7332825,-79.4197497,9.181305462777136,Pizza Place
M5M,"Bedford Park, Lawrence Manor East",43.7332825,-79.4197497,9.181305462777136,Grocery Store
M5M,"Bedford Park, Lawrence Manor East",43.7332825,-79.4197497,9.181305462777136,Italian Restaurant
M5M,"Bedford Park, Lawrence Manor East",43.7332825,-79.4197497,9.181305462777136,Indian Restaurant
M5M,"Bedford Park, Lawrence Manor East",43.7332825,-79.4197497,9.181305462777136,Juice Bar
M5M,"Bedford Park, Lawrence Manor East",43.7332825,-79.4197497,9.181305462777136,Bakery
M5M,"Bedford Park, Lawrence Manor East",43.7332825,-79.4197497,9.181305462777136,French Restaurant
M5M,"Bedford Park, Lawrence Manor East",43.7332825,-79.4197497,9.181305462777136,American Restaurant
M5M,"Bedford Park, Lawrence Manor East",43.7332825,-79.4197497,9.181305462777136,Thai Restaurant
M5M,"Bedford Park, Lawrence Manor East",43.7332825,-79.4197497,9.181305462777136,Gluten-free Restaurant
M5M,"Bedford Park, Lawrence Manor East",43.7332825,-79.4197497,9.181305462777136,Restaurant
M5M,"Bedford Park, Lawrence Manor East",43.7332825,-79.4197497,9.181305462777136,Italian Restaurant
M5M,"Bedford Park, Lawrence Manor East",43.7332825,-79.4197497,9.181305462777136,Indian Restaurant
M5M,"Bedford Park, Lawrence Manor East",43.7332825,-79.4197497,9.181305462777136,Greek Restaurant
M5M,"Bedford Park, Lawrence Manor East",43.7332825,-79.4197497,9.181305462777136,Middle Eastern Restaurant
M5M,"Bedford Park, Lawrence Manor East",43.7332825,-79.4197497,9.181305462777136,Restaurant
M5M,"Bedford Park, Lawrence Manor East",43.7332825,-79.4197497,9.181305462777136,Café
M5N,Roselawn,43.7116948,-79.41693559999999,6.835324643390745,No Restaurants
M5P,"Forest Hill North, Forest Hill West",43.6969476,-79.41130720000001,5.146111122576995,No Restaurants
M5R,"North Midtown, The Annex, Yorkville",43.6727097,-79.40567840000001,2.5521970393902973,Coffee Shop
M5R,"North Midtown, The Annex, Yorkville",43.6727097,-79.40567840000001,2.5521970393902973,Café
M5R,"North Midtown, The Annex, Yorkville",43.6727097,-79.40567840000001,2.5521970393902973,Café
M5R,"North Midtown, The Annex, Yorkville",43.6727097,-79.40567840000001,2.5521970393902973,Donut Shop
M5R,"North Midtown, The Annex, Yorkville",43.6727097,-79.40567840000001,2.5521970393902973,Middle Eastern Restaurant
M5R,"North Midtown, The Annex, Yorkville",43.6727097,-79.40567840000001,2.5521970393902973,Burger Joint
M5R,"North Midtown, The Annex, Yorkville",43.6727097,-79.40567840000001,2.5521970393902973,Coffee Shop
M5R,"North Midtown, The Annex, Yorkville",43.6727097,-79.40567840000001,2.5521970393902973,Jewish Restaurant
M5R,"North Midtown, The Annex, Yorkville",43.6727097,-79.40567840000001,2.5521970393902973,Vegetarian / Vegan Restaurant
M5R,"North Midtown, The Annex, Yorkville",43.6727097,-79.40567840000001,2.5521970393902973,Chinese Restaurant
M5R,"North Midtown, The Annex, Yorkville",43.6727097,-79.40567840000001,2.5521970393902973,Japanese Restaurant
M5R,"North Midtown, The Annex, Yorkville",43.6727097,-79.40567840000001,2.5521970393902973,Cafeteria
M5R,"North Midtown, The Annex, Yorkville",43.6727097,-79.40567840000001,2.5521970393902973,Dessert Shop
M5R,"North Midtown, The Annex, Yorkville",43.6727097,-79.40567840000001,2.5521970393902973,Bakery
M5R,"North Midtown, The Annex, Yorkville",43.6727097,-79.40567840000001,2.5521970393902973,Restaurant
M5R,"North Midtown, The Annex, Yorkville",43.6727097,-79.40567840000001,2.5521970393902973,Sandwich Place
M5R,"North Midtown, The Annex, Yorkville",43.6727097,-79.40567840000001,2.5521970393902973,Sandwich Place
M5R,"North Midtown, The Annex, Yorkville",43.6727097,-79.40567840000001,2.5521970393902973,Asian Restaurant
M5R,"North Midtown, The Annex, Yorkville",43.6727097,-79.40567840000001,2.5521970393902973,Indian Restaurant
M5R,"North Midtown, The Annex, Yorkville",43.6727097,-79.40567840000001,2.5521970393902973,Frozen Yogurt Shop
M5R,"North Midtown, The Annex, Yorkville",43.6727097,-79.40567840000001,2.5521970393902973,Pizza Place
M5S,"Harbord, University of Toronto",43.6626956,-79.4000493,1.4124788252440443,College Cafeteria
M5S,"Harbord, University of Toronto",43.6626956,-79.4000493,1.4124788252440443,Coffee Shop
M5S,"Harbord, University of Toronto",43.6626956,-79.4000493,1.4124788252440443,Coffee Shop
M5S,"Harbord, University of Toronto",43.6626956,-79.4000493,1.4124788252440443,Coffee Shop
M5S,"Harbord, University of Toronto",43.6626956,-79.4000493,1.4124788252440443,Café
M5S,"Harbord, University of Toronto",43.6626956,-79.4000493,1.4124788252440443,Food Truck
M5S,"Harbord, University of Toronto",43.6626956,-79.4000493,1.4124788252440443,BBQ Joint
M5S,"Harbord, University of Toronto",43.6626956,-79.4000493,1.4124788252440443,Food Truck
M5S,"Harbord, University of Toronto",43.6626956,-79.4000493,1.4124788252440443,Coffee Shop
M5S,"Harbord, University of Toronto",43.6626956,-79.4000493,1.4124788252440443,Food Truck
M5S,"Harbord, University of Toronto",43.6626956,-79.4000493,1.4124788252440443,Pizza Place
M5S,"Harbord, University of Toronto",43.6626956,-79.4000493,1.4124788252440443,Dessert Shop
M5S,"Harbord, University of Toronto",43.6626956,-79.4000493,1.4124788252440443,Sandwich Place
M5S,"Harbord, University of Toronto",43.6626956,-79.4000493,1.4124788252440443,Pizza Place
M5S,"Harbord, University of Toronto",43.6626956,-79.4000493,1.4124788252440443,Food Truck
M5S,"Harbord, University of Toronto",43.6626956,-79.4000493,1.4124788252440443,Sandwich Place
M5S,"Harbord, University of Toronto",43.6626956,-79.4000493,1.4124788252440443,Mediterranean Restaurant
M5S,"Harbord, University of Toronto",43.6626956,-79.4000493,1.4124788252440443,Food Truck
M5S,"Harbord, University of Toronto",43.6626956,-79.4000493,1.4124788252440443,Coffee Shop
M5S,"Harbord, University of Toronto",43.6626956,-79.4000493,1.4124788252440443,Café
M5S,"Harbord, University of Toronto",43.6626956,-79.4000493,1.4124788252440443,Italian Restaurant
M5S,"Harbord, University of Toronto",43.6626956,-79.4000493,1.4124788252440443,Mediterranean Restaurant
M5S,"Harbord, University of Toronto",43.6626956,-79.4000493,1.4124788252440443,Korean Restaurant
M5S,"Harbord, University of Toronto",43.6626956,-79.4000493,1.4124788252440443,Food Truck
M5S,"Harbord, University of Toronto",43.6626956,-79.4000493,1.4124788252440443,Asian Restaurant
M5S,"Harbord, University of Toronto",43.6626956,-79.4000493,1.4124788252440443,Chinese Restaurant
M5S,"Harbord, University of Toronto",43.6626956,-79.4000493,1.4124788252440443,Bakery
M5S,"Harbord, University of Toronto",43.6626956,-79.4000493,1.4124788252440443,Coffee Shop
M5S,"Harbord, University of Toronto",43.6626956,-79.4000493,1.4124788252440443,French Restaurant
M5S,"Harbord, University of Toronto",43.6626956,-79.4000493,1.4124788252440443,Café
M5S,"Harbord, University of Toronto",43.6626956,-79.4000493,1.4124788252440443,College Quad
M5S,"Harbord, University of Toronto",43.6626956,-79.4000493,1.4124788252440443,Vegetarian / Vegan Restaurant
M5S,"Harbord, University of Toronto",43.6626956,-79.4000493,1.4124788252440443,Italian Restaurant
M5S,"Harbord, University of Toronto",43.6626956,-79.4000493,1.4124788252440443,French Restaurant
M5S,"Harbord, University of Toronto",43.6626956,-79.4000493,1.4124788252440443,Restaurant
M5S,"Harbord, University of Toronto",43.6626956,-79.4000493,1.4124788252440443,Café
M5S,"Harbord, University of Toronto",43.6626956,-79.4000493,1.4124788252440443,Bakery
M5S,"Harbord, University of Toronto",43.6626956,-79.4000493,1.4124788252440443,Restaurant
M5S,"Harbord, University of Toronto",43.6626956,-79.4000493,1.4124788252440443,Food Truck
M5S,"Harbord, University of Toronto",43.6626956,-79.4000493,1.4124788252440443,Comfort Food Restaurant
M5S,"Harbord, University of Toronto",43.6626956,-79.4000493,1.4124788252440443,Café
M5S,"Harbord, University of Toronto",43.6626956,-79.4000493,1.4124788252440443,Café
M5S,"Harbord, University of Toronto",43.6626956,-79.4000493,1.4124788252440443,Chinese Restaurant
M5S,"Harbord, University of Toronto",43.6626956,-79.4000493,1.4124788252440443,Café
M5S,"Harbord, University of Toronto",43.6626956,-79.4000493,1.4124788252440443,Japanese Restaurant
M5S,"Harbord, University of Toronto",43.6626956,-79.4000493,1.4124788252440443,Café
M5S,"Harbord, University of Toronto",43.6626956,-79.4000493,1.4124788252440443,Korean Restaurant
M5S,"Harbord, University of Toronto",43.6626956,-79.4000493,1.4124788252440443,Noodle House
M5T,"Chinatown, Grange Park, Kensington Market",43.6532057,-79.4000493,1.030817160068874,Breakfast Spot
M5T,"Chinatown, Grange Park, Kensington Market",43.6532057,-79.4000493,1.030817160068874,Cocktail Bar
M5T,"Chinatown, Grange Park, Kensington Market",43.6532057,-79.4000493,1.030817160068874,Café
M5T,"Chinatown, Grange Park, Kensington Market",43.6532057,-79.4000493,1.030817160068874,Bubble Tea Shop
M5T,"Chinatown, Grange Park, Kensington Market",43.6532057,-79.4000493,1.030817160068874,Café
M5T,"Chinatown, Grange Park, Kensington Market",43.6532057,-79.4000493,1.030817160068874,Chinese Restaurant
M5T,"Chinatown, Grange Park, Kensington Market",43.6532057,-79.4000493,1.030817160068874,Donut Shop
M5T,"Chinatown, Grange Park, Kensington Market",43.6532057,-79.4000493,1.030817160068874,Dim Sum Restaurant
M5T,"Chinatown, Grange Park, Kensington Market",43.6532057,-79.4000493,1.030817160068874,Vietnamese Restaurant
M5T,"Chinatown, Grange Park, Kensington Market",43.6532057,-79.4000493,1.030817160068874,Coffee Shop
M5T,"Chinatown, Grange Park, Kensington Market",43.6532057,-79.4000493,1.030817160068874,Dim Sum Restaurant
M5T,"Chinatown, Grange Park, Kensington Market",43.6532057,-79.4000493,1.030817160068874,Taco Place
M5T,"Chinatown, Grange Park, Kensington Market",43.6532057,-79.4000493,1.030817160068874,Bakery
M5T,"Chinatown, Grange Park, Kensington Market",43.6532057,-79.4000493,1.030817160068874,Vegetarian / Vegan Restaurant
M5T,"Chinatown, Grange Park, Kensington Market",43.6532057,-79.4000493,1.030817160068874,Vietnamese Restaurant
M5T,"Chinatown, Grange Park, Kensington Market",43.6532057,-79.4000493,1.030817160068874,Café
M5T,"Chinatown, Grange Park, Kensington Market",43.6532057,-79.4000493,1.030817160068874,Mexican Restaurant
M5T,"Chinatown, Grange Park, Kensington Market",43.6532057,-79.4000493,1.030817160068874,Dumpling Restaurant
M5T,"Chinatown, Grange Park, Kensington Market",43.6532057,-79.4000493,1.030817160068874,Café
M5T,"Chinatown, Grange Park, Kensington Market",43.6532057,-79.4000493,1.030817160068874,Ramen Restaurant
M5T,"Chinatown, Grange Park, Kensington Market",43.6532057,-79.4000493,1.030817160068874,Chinese Restaurant
M5T,"Chinatown, Grange Park, Kensington Market",43.6532057,-79.4000493,1.030817160068874,Taco Place
M5T,"Chinatown, Grange Park, Kensington Market",43.6532057,-79.4000493,1.030817160068874,Noodle House
M5T,"Chinatown, Grange Park, Kensington Market",43.6532057,-79.4000493,1.030817160068874,Bakery
M5T,"Chinatown, Grange Park, Kensington Market",43.6532057,-79.4000493,1.030817160068874,Dumpling Restaurant
M5T,"Chinatown, Grange Park, Kensington Market",43.6532057,-79.4000493,1.030817160068874,Wine Bar
M5T,"Chinatown, Grange Park, Kensington Market",43.6532057,-79.4000493,1.030817160068874,Bubble Tea Shop
M5T,"Chinatown, Grange Park, Kensington Market",43.6532057,-79.4000493,1.030817160068874,Dessert Shop
M5T,"Chinatown, Grange Park, Kensington Market",43.6532057,-79.4000493,1.030817160068874,Tea Room
M5T,"Chinatown, Grange Park, Kensington Market",43.6532057,-79.4000493,1.030817160068874,Burger Joint
M5T,"Chinatown, Grange Park, Kensington Market",43.6532057,-79.4000493,1.030817160068874,Bubble Tea Shop
M5T,"Chinatown, Grange Park, Kensington Market",43.6532057,-79.4000493,1.030817160068874,Coffee Shop
M5T,"Chinatown, Grange Park, Kensington Market",43.6532057,-79.4000493,1.030817160068874,Donut Shop
M5T,"Chinatown, Grange Park, Kensington Market",43.6532057,-79.4000493,1.030817160068874,Mexican Restaurant
M5T,"Chinatown, Grange Park, Kensington Market",43.6532057,-79.4000493,1.030817160068874,Comfort Food Restaurant
M5T,"Chinatown, Grange Park, Kensington Market",43.6532057,-79.4000493,1.030817160068874,Noodle House
M5T,"Chinatown, Grange Park, Kensington Market",43.6532057,-79.4000493,1.030817160068874,Noodle House
M5T,"Chinatown, Grange Park, Kensington Market",43.6532057,-79.4000493,1.030817160068874,Chinese Restaurant
M5T,"Chinatown, Grange Park, Kensington Market",43.6532057,-79.4000493,1.030817160068874,Ice Cream Shop
M5T,"Chinatown, Grange Park, Kensington Market",43.6532057,-79.4000493,1.030817160068874,Vietnamese Restaurant
M5T,"Chinatown, Grange Park, Kensington Market",43.6532057,-79.4000493,1.030817160068874,Vegetarian / Vegan Restaurant
M5T,"Chinatown, Grange Park, Kensington Market",43.6532057,-79.4000493,1.030817160068874,Coffee Shop
M5T,"Chinatown, Grange Park, Kensington Market",43.6532057,-79.4000493,1.030817160068874,Chinese Restaurant
M5T,"Chinatown, Grange Park, Kensington Market",43.6532057,-79.4000493,1.030817160068874,Vegetarian / Vegan Restaurant
M5T,"Chinatown, Grange Park, Kensington Market",43.6532057,-79.4000493,1.030817160068874,Burger Joint
M5T,"Chinatown, Grange Park, Kensington Market",43.6532057,-79.4000493,1.030817160068874,Bagel Shop
M5T,"Chinatown, Grange Park, Kensington Market",43.6532057,-79.4000493,1.030817160068874,Asian Restaurant
M5T,"Chinatown, Grange Park, Kensington Market",43.6532057,-79.4000493,1.030817160068874,Snack Place
M5T,"Chinatown, Grange Park, Kensington Market",43.6532057,-79.4000493,1.030817160068874,Bubble Tea Shop
M5T,"Chinatown, Grange Park, Kensington Market",43.6532057,-79.4000493,1.030817160068874,Vietnamese Restaurant
M5V,"Bathurst Quay, CN Tower, Harbourfront West, Island airport, King and Spadina, Railway Lands, South Niagara",43.6289467,-79.3944199,2.8361304302850177,Coffee Shop
M5V,"Bathurst Quay, CN Tower, Harbourfront West, Island airport, King and Spadina, Railway Lands, South Niagara",43.6289467,-79.3944199,2.8361304302850177,Bar
M5W,Stn A PO Boxes 25 The Esplanade,43.6464352,-79.37484599999999,1.2946378966967325,Breakfast Spot
M5W,Stn A PO Boxes 25 The Esplanade,43.6464352,-79.37484599999999,1.2946378966967325,Diner
M5W,Stn A PO Boxes 25 The Esplanade,43.6464352,-79.37484599999999,1.2946378966967325,Coffee Shop
M5W,Stn A PO Boxes 25 The Esplanade,43.6464352,-79.37484599999999,1.2946378966967325,Grocery Store
M5W,Stn A PO Boxes 25 The Esplanade,43.6464352,-79.37484599999999,1.2946378966967325,Steakhouse
M5W,Stn A PO Boxes 25 The Esplanade,43.6464352,-79.37484599999999,1.2946378966967325,Coffee Shop
M5W,Stn A PO Boxes 25 The Esplanade,43.6464352,-79.37484599999999,1.2946378966967325,Vegetarian / Vegan Restaurant
M5W,Stn A PO Boxes 25 The Esplanade,43.6464352,-79.37484599999999,1.2946378966967325,Coffee Shop
M5W,Stn A PO Boxes 25 The Esplanade,43.6464352,-79.37484599999999,1.2946378966967325,Sandwich Place
M5W,Stn A PO Boxes 25 The Esplanade,43.6464352,-79.37484599999999,1.2946378966967325,Coffee Shop
M5W,Stn A PO Boxes 25 The Esplanade,43.6464352,-79.37484599999999,1.2946378966967325,Coffee Shop
M5W,Stn A PO Boxes 25 The Esplanade,43.6464352,-79.37484599999999,1.2946378966967325,Coffee Shop
M5W,Stn A PO Boxes 25 The Esplanade,43.6464352,-79.37484599999999,1.2946378966967325,Pub
M5W,Stn A PO Boxes 25 The Esplanade,43.6464352,-79.37484599999999,1.2946378966967325,Coffee Shop
M5W,Stn A PO Boxes 25 The Esplanade,43.6464352,-79.37484599999999,1.2946378966967325,Bar
M5W,Stn A PO Boxes 25 The Esplanade,43.6464352,-79.37484599999999,1.2946378966967325,Restaurant
M5W,Stn A PO Boxes 25 The Esplanade,43.6464352,-79.37484599999999,1.2946378966967325,Italian Restaurant
M5W,Stn A PO Boxes 25 The Esplanade,43.6464352,-79.37484599999999,1.2946378966967325,Sushi Restaurant
M5W,Stn A PO Boxes 25 The Esplanade,43.6464352,-79.37484599999999,1.2946378966967325,French Restaurant
M5W,Stn A PO Boxes 25 The Esplanade,43.6464352,-79.37484599999999,1.2946378966967325,Restaurant
M5W,Stn A PO Boxes 25 The Esplanade,43.6464352,-79.37484599999999,1.2946378966967325,Restaurant
M5W,Stn A PO Boxes 25 The Esplanade,43.6464352,-79.37484599999999,1.2946378966967325,Coffee Shop
M5W,Stn A PO Boxes 25 The Esplanade,43.6464352,-79.37484599999999,1.2946378966967325,Belgian Restaurant
M5W,Stn A PO Boxes 25 The Esplanade,43.6464352,-79.37484599999999,1.2946378966967325,Coffee Shop
M5W,Stn A PO Boxes 25 The Esplanade,43.6464352,-79.37484599999999,1.2946378966967325,Coffee Shop
M5W,Stn A PO Boxes 25 The Esplanade,43.6464352,-79.37484599999999,1.2946378966967325,Coffee Shop
M5W,Stn A PO Boxes 25 The Esplanade,43.6464352,-79.37484599999999,1.2946378966967325,Bar
M5W,Stn A PO Boxes 25 The Esplanade,43.6464352,-79.37484599999999,1.2946378966967325,Fast Food Restaurant
M5W,Stn A PO Boxes 25 The Esplanade,43.6464352,-79.37484599999999,1.2946378966967325,Café
M5W,Stn A PO Boxes 25 The Esplanade,43.6464352,-79.37484599999999,1.2946378966967325,Italian Restaurant
M5W,Stn A PO Boxes 25 The Esplanade,43.6464352,-79.37484599999999,1.2946378966967325,Tea Room
M5W,Stn A PO Boxes 25 The Esplanade,43.6464352,-79.37484599999999,1.2946378966967325,Fast Food Restaurant
M5W,Stn A PO Boxes 25 The Esplanade,43.6464352,-79.37484599999999,1.2946378966967325,Japanese Restaurant
M5W,Stn A PO Boxes 25 The Esplanade,43.6464352,-79.37484599999999,1.2946378966967325,Sushi Restaurant
M5W,Stn A PO Boxes 25 The Esplanade,43.6464352,-79.37484599999999,1.2946378966967325,Sandwich Place
M5W,Stn A PO Boxes 25 The Esplanade,43.6464352,-79.37484599999999,1.2946378966967325,Sandwich Place
M5W,Stn A PO Boxes 25 The Esplanade,43.6464352,-79.37484599999999,1.2946378966967325,Irish Pub
M5W,Stn A PO Boxes 25 The Esplanade,43.6464352,-79.37484599999999,1.2946378966967325,Pub
M5W,Stn A PO Boxes 25 The Esplanade,43.6464352,-79.37484599999999,1.2946378966967325,Pub
M5W,Stn A PO Boxes 25 The Esplanade,43.6464352,-79.37484599999999,1.2946378966967325,Diner
M5W,Stn A PO Boxes 25 The Esplanade,43.6464352,-79.37484599999999,1.2946378966967325,Breakfast Spot
M5W,Stn A PO Boxes 25 The Esplanade,43.6464352,-79.37484599999999,1.2946378966967325,Middle Eastern Restaurant
M5W,Stn A PO Boxes 25 The Esplanade,43.6464352,-79.37484599999999,1.2946378966967325,Thai Restaurant
M5W,Stn A PO Boxes 25 The Esplanade,43.6464352,-79.37484599999999,1.2946378966967325,Gastropub
M5W,Stn A PO Boxes 25 The Esplanade,43.6464352,-79.37484599999999,1.2946378966967325,Restaurant
M5W,Stn A PO Boxes 25 The Esplanade,43.6464352,-79.37484599999999,1.2946378966967325,American Restaurant
M5W,Stn A PO Boxes 25 The Esplanade,43.6464352,-79.37484599999999,1.2946378966967325,American Restaurant
M5W,Stn A PO Boxes 25 The Esplanade,43.6464352,-79.37484599999999,1.2946378966967325,Beer Bar
M5W,Stn A PO Boxes 25 The Esplanade,43.6464352,-79.37484599999999,1.2946378966967325,Bistro
M5W,Stn A PO Boxes 25 The Esplanade,43.6464352,-79.37484599999999,1.2946378966967325,French Restaurant
M5X,"First Canadian Place, Underground city",43.6484292,-79.3822802,0.7298320125473962,Food Court
M5X,"First Canadian Place, Underground city",43.6484292,-79.3822802,0.7298320125473962,Coffee Shop
M5X,"First Canadian Place, Underground city",43.6484292,-79.3822802,0.7298320125473962,Deli / Bodega
M5X,"First Canadian Place, Underground city",43.6484292,-79.3822802,0.7298320125473962,Gastropub
M5X,"First Canadian Place, Underground city",43.6484292,-79.3822802,0.7298320125473962,Coffee Shop
M5X,"First Canadian Place, Underground city",43.6484292,-79.3822802,0.7298320125473962,Deli / Bodega
M5X,"First Canadian Place, Underground city",43.6484292,-79.3822802,0.7298320125473962,Bubble Tea Shop
M5X,"First Canadian Place, Underground city",43.6484292,-79.3822802,0.7298320125473962,Coffee Shop
M5X,"First Canadian Place, Underground city",43.6484292,-79.3822802,0.7298320125473962,Café
M5X,"First Canadian Place, Underground city",43.6484292,-79.3822802,0.7298320125473962,Coffee Shop
M5X,"First Canadian Place, Underground city",43.6484292,-79.3822802,0.7298320125473962,Coffee Shop
M5X,"First Canadian Place, Underground city",43.6484292,-79.3822802,0.7298320125473962,Coffee Shop
M5X,"First Canadian Place, Underground city",43.6484292,-79.3822802,0.7298320125473962,Deli / Bodega
M5X,"First Canadian Place, Underground city",43.6484292,-79.3822802,0.7298320125473962,Coffee Shop
M5X,"First Canadian Place, Underground city",43.6484292,-79.3822802,0.7298320125473962,Deli / Bodega
M5X,"First Canadian Place, Underground city",43.6484292,-79.3822802,0.7298320125473962,Food Court
M5X,"First Canadian Place, Underground city",43.6484292,-79.3822802,0.7298320125473962,Restaurant
M5X,"First Canadian Place, Underground city",43.6484292,-79.3822802,0.7298320125473962,Bar
M5X,"First Canadian Place, Underground city",43.6484292,-79.3822802,0.7298320125473962,Steakhouse
M5X,"First Canadian Place, Underground city",43.6484292,-79.3822802,0.7298320125473962,Café
M5X,"First Canadian Place, Underground city",43.6484292,-79.3822802,0.7298320125473962,Convenience Store
M5X,"First Canadian Place, Underground city",43.6484292,-79.3822802,0.7298320125473962,Restaurant
M5X,"First Canadian Place, Underground city",43.6484292,-79.3822802,0.7298320125473962,Food Court
M5X,"First Canadian Place, Underground city",43.6484292,-79.3822802,0.7298320125473962,American Restaurant
M5X,"First Canadian Place, Underground city",43.6484292,-79.3822802,0.7298320125473962,Coffee Shop
M5X,"First Canadian Place, Underground city",43.6484292,-79.3822802,0.7298320125473962,Coffee Shop
M5X,"First Canadian Place, Underground city",43.6484292,-79.3822802,0.7298320125473962,Pizza Place
M5X,"First Canadian Place, Underground city",43.6484292,-79.3822802,0.7298320125473962,Vegetarian / Vegan Restaurant
M5X,"First Canadian Place, Underground city",43.6484292,-79.3822802,0.7298320125473962,Pizza Place
M5X,"First Canadian Place, Underground city",43.6484292,-79.3822802,0.7298320125473962,Bar
M5X,"First Canadian Place, Underground city",43.6484292,-79.3822802,0.7298320125473962,Food Court
M5X,"First Canadian Place, Underground city",43.6484292,-79.3822802,0.7298320125473962,Food Court
M5X,"First Canadian Place, Underground city",43.6484292,-79.3822802,0.7298320125473962,Restaurant
M5X,"First Canadian Place, Underground city",43.6484292,-79.3822802,0.7298320125473962,Gastropub
M5X,"First Canadian Place, Underground city",43.6484292,-79.3822802,0.7298320125473962,Café
M5X,"First Canadian Place, Underground city",43.6484292,-79.3822802,0.7298320125473962,Italian Restaurant
M5X,"First Canadian Place, Underground city",43.6484292,-79.3822802,0.7298320125473962,Food Court
M5X,"First Canadian Place, Underground city",43.6484292,-79.3822802,0.7298320125473962,Greek Restaurant
M5X,"First Canadian Place, Underground city",43.6484292,-79.3822802,0.7298320125473962,Japanese Restaurant
M5X,"First Canadian Place, Underground city",43.6484292,-79.3822802,0.7298320125473962,Restaurant
M5X,"First Canadian Place, Underground city",43.6484292,-79.3822802,0.7298320125473962,Restaurant
M5X,"First Canadian Place, Underground city",43.6484292,-79.3822802,0.7298320125473962,Coffee Shop
M5X,"First Canadian Place, Underground city",43.6484292,-79.3822802,0.7298320125473962,Chinese Restaurant
M5X,"First Canadian Place, Underground city",43.6484292,-79.3822802,0.7298320125473962,Breakfast Spot
M5X,"First Canadian Place, Underground city",43.6484292,-79.3822802,0.7298320125473962,Fast Food Restaurant
M5X,"First Canadian Place, Underground city",43.6484292,-79.3822802,0.7298320125473962,Cafeteria
M5X,"First Canadian Place, Underground city",43.6484292,-79.3822802,0.7298320125473962,American Restaurant
M5X,"First Canadian Place, Underground city",43.6484292,-79.3822802,0.7298320125473962,Restaurant
M5X,"First Canadian Place, Underground city",43.6484292,-79.3822802,0.7298320125473962,Steakhouse
M5X,"First Canadian Place, Underground city",43.6484292,-79.3822802,0.7298320125473962,Burger Joint
M6A,"Lawrence Heights, Lawrence Manor",43.718517999999996,-79.46476329999999,9.478489589698475,Coffee Shop
M6A,"Lawrence Heights, Lawrence Manor",43.718517999999996,-79.46476329999999,9.478489589698475,Hot Dog Joint
M6A,"Lawrence Heights, Lawrence Manor",43.718517999999996,-79.46476329999999,9.478489589698475,Hot Dog Joint
M6A,"Lawrence Heights, Lawrence Manor",43.718517999999996,-79.46476329999999,9.478489589698475,Fast Food Restaurant
M6A,"Lawrence Heights, Lawrence Manor",43.718517999999996,-79.46476329999999,9.478489589698475,BBQ Joint
M6A,"Lawrence Heights, Lawrence Manor",43.718517999999996,-79.46476329999999,9.478489589698475,Food Truck
M6A,"Lawrence Heights, Lawrence Manor",43.718517999999996,-79.46476329999999,9.478489589698475,Dessert Shop
M6B,Glencairn,43.709577,-79.44507259999999,7.716072015813278,Japanese Restaurant
M6B,Glencairn,43.709577,-79.44507259999999,7.716072015813278,Italian Restaurant
M6B,Glencairn,43.709577,-79.44507259999999,7.716072015813278,Sushi Restaurant
M6B,Glencairn,43.709577,-79.44507259999999,7.716072015813278,Asian Restaurant
M6B,Glencairn,43.709577,-79.44507259999999,7.716072015813278,Coffee Shop
M6B,Glencairn,43.709577,-79.44507259999999,7.716072015813278,Vegetarian / Vegan Restaurant
M6B,Glencairn,43.709577,-79.44507259999999,7.716072015813278,Filipino Restaurant
M6B,Glencairn,43.709577,-79.44507259999999,7.716072015813278,Vegetarian / Vegan Restaurant
M6B,Glencairn,43.709577,-79.44507259999999,7.716072015813278,Asian Restaurant
M6B,Glencairn,43.709577,-79.44507259999999,7.716072015813278,Café
M6B,Glencairn,43.709577,-79.44507259999999,7.716072015813278,Pizza Place
M6B,Glencairn,43.709577,-79.44507259999999,7.716072015813278,Bakery
M6C,Humewood-Cedarvale,43.6937813,-79.42819140000002,5.503192109855067,Restaurant
M6E,Caledonia-Fairbanks,43.6890256,-79.453512,6.579051851524256,Bakery
M6E,Caledonia-Fairbanks,43.6890256,-79.453512,6.579051851524256,Café
M6E,Caledonia-Fairbanks,43.6890256,-79.453512,6.579051851524256,Fast Food Restaurant
M6G,Christie,43.669542,-79.4225637,3.3152657778306835,Coffee Shop
M6G,Christie,43.669542,-79.4225637,3.3152657778306835,Café
M6G,Christie,43.669542,-79.4225637,3.3152657778306835,Grocery Store
M6G,Christie,43.669542,-79.4225637,3.3152657778306835,Bakery
M6G,Christie,43.669542,-79.4225637,3.3152657778306835,Café
M6G,Christie,43.669542,-79.4225637,3.3152657778306835,American Restaurant
M6G,Christie,43.669542,-79.4225637,3.3152657778306835,Candy Store
M6G,Christie,43.669542,-79.4225637,3.3152657778306835,Café
M6G,Christie,43.669542,-79.4225637,3.3152657778306835,Bakery
M6G,Christie,43.669542,-79.4225637,3.3152657778306835,Japanese Restaurant
M6G,Christie,43.669542,-79.4225637,3.3152657778306835,Bakery
M6G,Christie,43.669542,-79.4225637,3.3152657778306835,Thai Restaurant
M6G,Christie,43.669542,-79.4225637,3.3152657778306835,Café
M6G,Christie,43.669542,-79.4225637,3.3152657778306835,Diner
M6G,Christie,43.669542,-79.4225637,3.3152657778306835,Juice Bar
M6G,Christie,43.669542,-79.4225637,3.3152657778306835,Hot Dog Joint
M6G,Christie,43.669542,-79.4225637,3.3152657778306835,Café
M6G,Christie,43.669542,-79.4225637,3.3152657778306835,Italian Restaurant
M6G,Christie,43.669542,-79.4225637,3.3152657778306835,Café
M6G,Christie,43.669542,-79.4225637,3.3152657778306835,Korean Restaurant
M6H,"Dovercourt Village, Dufferin",43.66900510000001,-79.4422593,4.710057851738444,Sushi Restaurant
M6H,"Dovercourt Village, Dufferin",43.66900510000001,-79.4422593,4.710057851738444,Bakery
M6H,"Dovercourt Village, Dufferin",43.66900510000001,-79.4422593,4.710057851738444,Fast Food Restaurant
M6H,"Dovercourt Village, Dufferin",43.66900510000001,-79.4422593,4.710057851738444,Portuguese Restaurant
M6H,"Dovercourt Village, Dufferin",43.66900510000001,-79.4422593,4.710057851738444,Sandwich Place
M6H,"Dovercourt Village, Dufferin",43.66900510000001,-79.4422593,4.710057851738444,Diner
M6H,"Dovercourt Village, Dufferin",43.66900510000001,-79.4422593,4.710057851738444,Pizza Place
M6H,"Dovercourt Village, Dufferin",43.66900510000001,-79.4422593,4.710057851738444,Coffee Shop
M6H,"Dovercourt Village, Dufferin",43.66900510000001,-79.4422593,4.710057851738444,Middle Eastern Restaurant
M6H,"Dovercourt Village, Dufferin",43.66900510000001,-79.4422593,4.710057851738444,Donut Shop
M6H,"Dovercourt Village, Dufferin",43.66900510000001,-79.4422593,4.710057851738444,Portuguese Restaurant
M6H,"Dovercourt Village, Dufferin",43.66900510000001,-79.4422593,4.710057851738444,Portuguese Restaurant
M6H,"Dovercourt Village, Dufferin",43.66900510000001,-79.4422593,4.710057851738444,Portuguese Restaurant
M6H,"Dovercourt Village, Dufferin",43.66900510000001,-79.4422593,4.710057851738444,Café
M6H,"Dovercourt Village, Dufferin",43.66900510000001,-79.4422593,4.710057851738444,Thai Restaurant
M6H,"Dovercourt Village, Dufferin",43.66900510000001,-79.4422593,4.710057851738444,Café
M6J,"Little Portugal, Trinity",43.647926700000006,-79.4197497,2.6882548487653457,Japanese Restaurant
M6J,"Little Portugal, Trinity",43.647926700000006,-79.4197497,2.6882548487653457,Coffee Shop
M6J,"Little Portugal, Trinity",43.647926700000006,-79.4197497,2.6882548487653457,Diner
M6J,"Little Portugal, Trinity",43.647926700000006,-79.4197497,2.6882548487653457,Bakery
M6J,"Little Portugal, Trinity",43.647926700000006,-79.4197497,2.6882548487653457,Coffee Shop
M6J,"Little Portugal, Trinity",43.647926700000006,-79.4197497,2.6882548487653457,Vietnamese Restaurant
M6J,"Little Portugal, Trinity",43.647926700000006,-79.4197497,2.6882548487653457,Ice Cream Shop
M6J,"Little Portugal, Trinity",43.647926700000006,-79.4197497,2.6882548487653457,Bagel Shop
M6J,"Little Portugal, Trinity",43.647926700000006,-79.4197497,2.6882548487653457,Mac & Cheese Joint
M6J,"Little Portugal, Trinity",43.647926700000006,-79.4197497,2.6882548487653457,Coffee Shop
M6J,"Little Portugal, Trinity",43.647926700000006,-79.4197497,2.6882548487653457,Asian Restaurant
M6J,"Little Portugal, Trinity",43.647926700000006,-79.4197497,2.6882548487653457,French Restaurant
M6J,"Little Portugal, Trinity",43.647926700000006,-79.4197497,2.6882548487653457,Bakery
M6J,"Little Portugal, Trinity",43.647926700000006,-79.4197497,2.6882548487653457,Asian Restaurant
M6J,"Little Portugal, Trinity",43.647926700000006,-79.4197497,2.6882548487653457,Gastropub
M6J,"Little Portugal, Trinity",43.647926700000006,-79.4197497,2.6882548487653457,Burger Joint
M6J,"Little Portugal, Trinity",43.647926700000006,-79.4197497,2.6882548487653457,New American Restaurant
M6J,"Little Portugal, Trinity",43.647926700000006,-79.4197497,2.6882548487653457,Restaurant
M6J,"Little Portugal, Trinity",43.647926700000006,-79.4197497,2.6882548487653457,Pizza Place
M6J,"Little Portugal, Trinity",43.647926700000006,-79.4197497,2.6882548487653457,Mexican Restaurant
M6J,"Little Portugal, Trinity",43.647926700000006,-79.4197497,2.6882548487653457,Sandwich Place
M6J,"Little Portugal, Trinity",43.647926700000006,-79.4197497,2.6882548487653457,Deli / Bodega
M6J,"Little Portugal, Trinity",43.647926700000006,-79.4197497,2.6882548487653457,Pizza Place
M6J,"Little Portugal, Trinity",43.647926700000006,-79.4197497,2.6882548487653457,Coffee Shop
M6J,"Little Portugal, Trinity",43.647926700000006,-79.4197497,2.6882548487653457,Bakery
M6J,"Little Portugal, Trinity",43.647926700000006,-79.4197497,2.6882548487653457,Bistro
M6J,"Little Portugal, Trinity",43.647926700000006,-79.4197497,2.6882548487653457,Vegetarian / Vegan Restaurant
M6J,"Little Portugal, Trinity",43.647926700000006,-79.4197497,2.6882548487653457,Food Truck
M6J,"Little Portugal, Trinity",43.647926700000006,-79.4197497,2.6882548487653457,Hot Dog Joint
M6J,"Little Portugal, Trinity",43.647926700000006,-79.4197497,2.6882548487653457,Coffee Shop
M6J,"Little Portugal, Trinity",43.647926700000006,-79.4197497,2.6882548487653457,Bakery
M6J,"Little Portugal, Trinity",43.647926700000006,-79.4197497,2.6882548487653457,Korean Restaurant
M6J,"Little Portugal, Trinity",43.647926700000006,-79.4197497,2.6882548487653457,Vegetarian / Vegan Restaurant
M6J,"Little Portugal, Trinity",43.647926700000006,-79.4197497,2.6882548487653457,Greek Restaurant
M6J,"Little Portugal, Trinity",43.647926700000006,-79.4197497,2.6882548487653457,Cuban Restaurant
M6J,"Little Portugal, Trinity",43.647926700000006,-79.4197497,2.6882548487653457,Portuguese Restaurant
M6J,"Little Portugal, Trinity",43.647926700000006,-79.4197497,2.6882548487653457,Italian Restaurant
M6J,"Little Portugal, Trinity",43.647926700000006,-79.4197497,2.6882548487653457,Burger Joint
M6J,"Little Portugal, Trinity",43.647926700000006,-79.4197497,2.6882548487653457,Brazilian Restaurant
M6J,"Little Portugal, Trinity",43.647926700000006,-79.4197497,2.6882548487653457,Japanese Restaurant
M6J,"Little Portugal, Trinity",43.647926700000006,-79.4197497,2.6882548487653457,Argentinian Restaurant
M6J,"Little Portugal, Trinity",43.647926700000006,-79.4197497,2.6882548487653457,Restaurant
M6J,"Little Portugal, Trinity",43.647926700000006,-79.4197497,2.6882548487653457,Asian Restaurant
M6J,"Little Portugal, Trinity",43.647926700000006,-79.4197497,2.6882548487653457,Restaurant
M6J,"Little Portugal, Trinity",43.647926700000006,-79.4197497,2.6882548487653457,Malay Restaurant
M6J,"Little Portugal, Trinity",43.647926700000006,-79.4197497,2.6882548487653457,Vietnamese Restaurant
M6J,"Little Portugal, Trinity",43.647926700000006,-79.4197497,2.6882548487653457,New American Restaurant
M6J,"Little Portugal, Trinity",43.647926700000006,-79.4197497,2.6882548487653457,Tapas Restaurant
M6J,"Little Portugal, Trinity",43.647926700000006,-79.4197497,2.6882548487653457,Coffee Shop
M6J,"Little Portugal, Trinity",43.647926700000006,-79.4197497,2.6882548487653457,Bar
M6K,"Brockton, Exhibition Place, Parkdale Village",43.6368472,-79.42819140000002,3.7894140891284414,Fast Food Restaurant
M6K,"Brockton, Exhibition Place, Parkdale Village",43.6368472,-79.42819140000002,3.7894140891284414,Coffee Shop
M6K,"Brockton, Exhibition Place, Parkdale Village",43.6368472,-79.42819140000002,3.7894140891284414,Café
M6K,"Brockton, Exhibition Place, Parkdale Village",43.6368472,-79.42819140000002,3.7894140891284414,Japanese Restaurant
M6K,"Brockton, Exhibition Place, Parkdale Village",43.6368472,-79.42819140000002,3.7894140891284414,Hot Dog Joint
M6K,"Brockton, Exhibition Place, Parkdale Village",43.6368472,-79.42819140000002,3.7894140891284414,Caribbean Restaurant
M6K,"Brockton, Exhibition Place, Parkdale Village",43.6368472,-79.42819140000002,3.7894140891284414,Falafel Restaurant
M6K,"Brockton, Exhibition Place, Parkdale Village",43.6368472,-79.42819140000002,3.7894140891284414,Coffee Shop
M6K,"Brockton, Exhibition Place, Parkdale Village",43.6368472,-79.42819140000002,3.7894140891284414,Fast Food Restaurant
M6K,"Brockton, Exhibition Place, Parkdale Village",43.6368472,-79.42819140000002,3.7894140891284414,Café
M6K,"Brockton, Exhibition Place, Parkdale Village",43.6368472,-79.42819140000002,3.7894140891284414,Cafeteria
M6K,"Brockton, Exhibition Place, Parkdale Village",43.6368472,-79.42819140000002,3.7894140891284414,American Restaurant
M6K,"Brockton, Exhibition Place, Parkdale Village",43.6368472,-79.42819140000002,3.7894140891284414,Deli / Bodega
M6K,"Brockton, Exhibition Place, Parkdale Village",43.6368472,-79.42819140000002,3.7894140891284414,Juice Bar
M6K,"Brockton, Exhibition Place, Parkdale Village",43.6368472,-79.42819140000002,3.7894140891284414,Coffee Shop
M6K,"Brockton, Exhibition Place, Parkdale Village",43.6368472,-79.42819140000002,3.7894140891284414,Café
M6K,"Brockton, Exhibition Place, Parkdale Village",43.6368472,-79.42819140000002,3.7894140891284414,Vietnamese Restaurant
M6K,"Brockton, Exhibition Place, Parkdale Village",43.6368472,-79.42819140000002,3.7894140891284414,Café
M6K,"Brockton, Exhibition Place, Parkdale Village",43.6368472,-79.42819140000002,3.7894140891284414,Pizza Place
M6K,"Brockton, Exhibition Place, Parkdale Village",43.6368472,-79.42819140000002,3.7894140891284414,Coffee Shop
M6K,"Brockton, Exhibition Place, Parkdale Village",43.6368472,-79.42819140000002,3.7894140891284414,Food Truck
M6K,"Brockton, Exhibition Place, Parkdale Village",43.6368472,-79.42819140000002,3.7894140891284414,Breakfast Spot
M6K,"Brockton, Exhibition Place, Parkdale Village",43.6368472,-79.42819140000002,3.7894140891284414,Sandwich Place
M6K,"Brockton, Exhibition Place, Parkdale Village",43.6368472,-79.42819140000002,3.7894140891284414,Filipino Restaurant
M6K,"Brockton, Exhibition Place, Parkdale Village",43.6368472,-79.42819140000002,3.7894140891284414,Caribbean Restaurant
M6K,"Brockton, Exhibition Place, Parkdale Village",43.6368472,-79.42819140000002,3.7894140891284414,Pizza Place
M6K,"Brockton, Exhibition Place, Parkdale Village",43.6368472,-79.42819140000002,3.7894140891284414,Restaurant
M6K,"Brockton, Exhibition Place, Parkdale Village",43.6368472,-79.42819140000002,3.7894140891284414,Café
M6K,"Brockton, Exhibition Place, Parkdale Village",43.6368472,-79.42819140000002,3.7894140891284414,Café
M6K,"Brockton, Exhibition Place, Parkdale Village",43.6368472,-79.42819140000002,3.7894140891284414,BBQ Joint
M6K,"Brockton, Exhibition Place, Parkdale Village",43.6368472,-79.42819140000002,3.7894140891284414,Sandwich Place
M6K,"Brockton, Exhibition Place, Parkdale Village",43.6368472,-79.42819140000002,3.7894140891284414,Breakfast Spot
M6L,"Downsview, North Park, Upwood Park",43.713756200000006,-79.4900738,10.572250075418808,Bakery
M6L,"Downsview, North Park, Upwood Park",43.713756200000006,-79.4900738,10.572250075418808,Deli / Bodega
M6M,"Del Ray, Keelesdale, Mount Dennis, Silverthorn",43.6911158,-79.47601329999999,8.214683789771795,Coffee Shop
M6M,"Del Ray, Keelesdale, Mount Dennis, Silverthorn",43.6911158,-79.47601329999999,8.214683789771795,Restaurant
M6M,"Del Ray, Keelesdale, Mount Dennis, Silverthorn",43.6911158,-79.47601329999999,8.214683789771795,Turkish Restaurant
M6M,"Del Ray, Keelesdale, Mount Dennis, Silverthorn",43.6911158,-79.47601329999999,8.214683789771795,Fried Chicken Joint
M6M,"Del Ray, Keelesdale, Mount Dennis, Silverthorn",43.6911158,-79.47601329999999,8.214683789771795,Sandwich Place
M6M,"Del Ray, Keelesdale, Mount Dennis, Silverthorn",43.6911158,-79.47601329999999,8.214683789771795,Chinese Restaurant
M6M,"Del Ray, Keelesdale, Mount Dennis, Silverthorn",43.6911158,-79.47601329999999,8.214683789771795,Fried Chicken Joint
M6M,"Del Ray, Keelesdale, Mount Dennis, Silverthorn",43.6911158,-79.47601329999999,8.214683789771795,Portuguese Restaurant
M6M,"Del Ray, Keelesdale, Mount Dennis, Silverthorn",43.6911158,-79.47601329999999,8.214683789771795,Caribbean Restaurant
M6N,"Runnymede, The Junction North",43.67318529999999,-79.48726190000001,8.283891692646426,Bakery
M6P,"High Park, The Junction South",43.6616083,-79.46476329999999,6.26227114372737,Mexican Restaurant
M6P,"High Park, The Junction South",43.6616083,-79.46476329999999,6.26227114372737,Food Truck
M6P,"High Park, The Junction South",43.6616083,-79.46476329999999,6.26227114372737,Steakhouse
M6R,"Parkdale, Roncesvalles",43.6489597,-79.456325,5.557259975993409,Coffee Shop
M6S,"Runnymede, Swansea",43.6515706,-79.4844499,7.78396315794223,Smoothie Shop
M6S,"Runnymede, Swansea",43.6515706,-79.4844499,7.78396315794223,Sushi Restaurant
M6S,"Runnymede, Swansea",43.6515706,-79.4844499,7.78396315794223,Coffee Shop
M6S,"Runnymede, Swansea",43.6515706,-79.4844499,7.78396315794223,Thai Restaurant
M6S,"Runnymede, Swansea",43.6515706,-79.4844499,7.78396315794223,Diner
M6S,"Runnymede, Swansea",43.6515706,-79.4844499,7.78396315794223,Café
M6S,"Runnymede, Swansea",43.6515706,-79.4844499,7.78396315794223,Eastern European Restaurant
M6S,"Runnymede, Swansea",43.6515706,-79.4844499,7.78396315794223,Sandwich Place
M6S,"Runnymede, Swansea",43.6515706,-79.4844499,7.78396315794223,Greek Restaurant
M6S,"Runnymede, Swansea",43.6515706,-79.4844499,7.78396315794223,Pub
M6S,"Runnymede, Swansea",43.6515706,-79.4844499,7.78396315794223,Falafel Restaurant
M6S,"Runnymede, Swansea",43.6515706,-79.4844499,7.78396315794223,Pizza Place
M6S,"Runnymede, Swansea",43.6515706,-79.4844499,7.78396315794223,Coffee Shop
M6S,"Runnymede, Swansea",43.6515706,-79.4844499,7.78396315794223,Food
M6S,"Runnymede, Swansea",43.6515706,-79.4844499,7.78396315794223,Café
M6S,"Runnymede, Swansea",43.6515706,-79.4844499,7.78396315794223,Burrito Place
M6S,"Runnymede, Swansea",43.6515706,-79.4844499,7.78396315794223,Fish & Chips Shop
M6S,"Runnymede, Swansea",43.6515706,-79.4844499,7.78396315794223,Pizza Place
M6S,"Runnymede, Swansea",43.6515706,-79.4844499,7.78396315794223,Restaurant
M6S,"Runnymede, Swansea",43.6515706,-79.4844499,7.78396315794223,Coffee Shop
M6S,"Runnymede, Swansea",43.6515706,-79.4844499,7.78396315794223,Sushi Restaurant
M6S,"Runnymede, Swansea",43.6515706,-79.4844499,7.78396315794223,Sushi Restaurant
M6S,"Runnymede, Swansea",43.6515706,-79.4844499,7.78396315794223,Coffee Shop
M6S,"Runnymede, Swansea",43.6515706,-79.4844499,7.78396315794223,Coffee Shop
M6S,"Runnymede, Swansea",43.6515706,-79.4844499,7.78396315794223,Dessert Shop
M6S,"Runnymede, Swansea",43.6515706,-79.4844499,7.78396315794223,Butcher
M6S,"Runnymede, Swansea",43.6515706,-79.4844499,7.78396315794223,Indian Restaurant
M6S,"Runnymede, Swansea",43.6515706,-79.4844499,7.78396315794223,Bakery
M6S,"Runnymede, Swansea",43.6515706,-79.4844499,7.78396315794223,French Restaurant
M6S,"Runnymede, Swansea",43.6515706,-79.4844499,7.78396315794223,Mediterranean Restaurant
M6S,"Runnymede, Swansea",43.6515706,-79.4844499,7.78396315794223,Falafel Restaurant
M6S,"Runnymede, Swansea",43.6515706,-79.4844499,7.78396315794223,Breakfast Spot
M6S,"Runnymede, Swansea",43.6515706,-79.4844499,7.78396315794223,Sushi Restaurant
M6S,"Runnymede, Swansea",43.6515706,-79.4844499,7.78396315794223,Diner
M6S,"Runnymede, Swansea",43.6515706,-79.4844499,7.78396315794223,Restaurant
M6S,"Runnymede, Swansea",43.6515706,-79.4844499,7.78396315794223,Pizza Place
M6S,"Runnymede, Swansea",43.6515706,-79.4844499,7.78396315794223,Pizza Place
M6S,"Runnymede, Swansea",43.6515706,-79.4844499,7.78396315794223,Mediterranean Restaurant
M6S,"Runnymede, Swansea",43.6515706,-79.4844499,7.78396315794223,Pizza Place
M6S,"Runnymede, Swansea",43.6515706,-79.4844499,7.78396315794223,Italian Restaurant
M6S,"Runnymede, Swansea",43.6515706,-79.4844499,7.78396315794223,Sushi Restaurant
M6S,"Runnymede, Swansea",43.6515706,-79.4844499,7.78396315794223,Café
M6S,"Runnymede, Swansea",43.6515706,-79.4844499,7.78396315794223,Pie Shop
M6S,"Runnymede, Swansea",43.6515706,-79.4844499,7.78396315794223,Tea Room
M6S,"Runnymede, Swansea",43.6515706,-79.4844499,7.78396315794223,Gastropub
M6S,"Runnymede, Swansea",43.6515706,-79.4844499,7.78396315794223,Pizza Place
M7A,Queen's Park,43.6623015,-79.3894938,0.9434801593240802,Thai Restaurant
M7A,Queen's Park,43.6623015,-79.3894938,0.9434801593240802,Coffee Shop
M7A,Queen's Park,43.6623015,-79.3894938,0.9434801593240802,Smoothie Shop
M7A,Queen's Park,43.6623015,-79.3894938,0.9434801593240802,Restaurant
M7A,Queen's Park,43.6623015,-79.3894938,0.9434801593240802,Sushi Restaurant
M7A,Queen's Park,43.6623015,-79.3894938,0.9434801593240802,Coffee Shop
M7A,Queen's Park,43.6623015,-79.3894938,0.9434801593240802,Korean Restaurant
M7A,Queen's Park,43.6623015,-79.3894938,0.9434801593240802,Sandwich Place
M7A,Queen's Park,43.6623015,-79.3894938,0.9434801593240802,Restaurant
M7A,Queen's Park,43.6623015,-79.3894938,0.9434801593240802,Coffee Shop
M7A,Queen's Park,43.6623015,-79.3894938,0.9434801593240802,Coffee Shop
M7A,Queen's Park,43.6623015,-79.3894938,0.9434801593240802,Sushi Restaurant
M7A,Queen's Park,43.6623015,-79.3894938,0.9434801593240802,Coffee Shop
M7A,Queen's Park,43.6623015,-79.3894938,0.9434801593240802,Café
M7A,Queen's Park,43.6623015,-79.3894938,0.9434801593240802,Sushi Restaurant
M7A,Queen's Park,43.6623015,-79.3894938,0.9434801593240802,Sandwich Place
M7A,Queen's Park,43.6623015,-79.3894938,0.9434801593240802,Café
M7A,Queen's Park,43.6623015,-79.3894938,0.9434801593240802,Portuguese Restaurant
M7A,Queen's Park,43.6623015,-79.3894938,0.9434801593240802,Middle Eastern Restaurant
M7A,Queen's Park,43.6623015,-79.3894938,0.9434801593240802,Italian Restaurant
M7A,Queen's Park,43.6623015,-79.3894938,0.9434801593240802,Coffee Shop
M7A,Queen's Park,43.6623015,-79.3894938,0.9434801593240802,Coffee Shop
M7A,Queen's Park,43.6623015,-79.3894938,0.9434801593240802,Japanese Restaurant
M7A,Queen's Park,43.6623015,-79.3894938,0.9434801593240802,Restaurant
M7A,Queen's Park,43.6623015,-79.3894938,0.9434801593240802,Dessert Shop
M7A,Queen's Park,43.6623015,-79.3894938,0.9434801593240802,Coffee Shop
M7A,Queen's Park,43.6623015,-79.3894938,0.9434801593240802,Coffee Shop
M7A,Queen's Park,43.6623015,-79.3894938,0.9434801593240802,Coffee Shop
M7A,Queen's Park,43.6623015,-79.3894938,0.9434801593240802,Salad Place
M7A,Queen's Park,43.6623015,-79.3894938,0.9434801593240802,Dessert Shop
M7A,Queen's Park,43.6623015,-79.3894938,0.9434801593240802,Sandwich Place
M7A,Queen's Park,43.6623015,-79.3894938,0.9434801593240802,French Restaurant
M7A,Queen's Park,43.6623015,-79.3894938,0.9434801593240802,Bubble Tea Shop
M7A,Queen's Park,43.6623015,-79.3894938,0.9434801593240802,Deli / Bodega
M7A,Queen's Park,43.6623015,-79.3894938,0.9434801593240802,Restaurant
M7A,Queen's Park,43.6623015,-79.3894938,0.9434801593240802,Coffee Shop
M7A,Queen's Park,43.6623015,-79.3894938,0.9434801593240802,Coffee Shop
M7A,Queen's Park,43.6623015,-79.3894938,0.9434801593240802,Bubble Tea Shop
M7A,Queen's Park,43.6623015,-79.3894938,0.9434801593240802,Italian Restaurant
M7A,Queen's Park,43.6623015,-79.3894938,0.9434801593240802,Wings Joint
M7A,Queen's Park,43.6623015,-79.3894938,0.9434801593240802,Falafel Restaurant
M7A,Queen's Park,43.6623015,-79.3894938,0.9434801593240802,Salad Place
M7A,Queen's Park,43.6623015,-79.3894938,0.9434801593240802,Coffee Shop
M7A,Queen's Park,43.6623015,-79.3894938,0.9434801593240802,Italian Restaurant
M7A,Queen's Park,43.6623015,-79.3894938,0.9434801593240802,Café
M7A,Queen's Park,43.6623015,-79.3894938,0.9434801593240802,Korean Restaurant
M7A,Queen's Park,43.6623015,-79.3894938,0.9434801593240802,Breakfast Spot
M7A,Queen's Park,43.6623015,-79.3894938,0.9434801593240802,Coffee Shop
M7A,Queen's Park,43.6623015,-79.3894938,0.9434801593240802,Restaurant
M7A,Queen's Park,43.6623015,-79.3894938,0.9434801593240802,Mediterranean Restaurant
M7R,Canada Post Gateway Processing Centre,43.6369656,-79.61581899999999,18.38602017263227,American Restaurant
M7R,Canada Post Gateway Processing Centre,43.6369656,-79.61581899999999,18.38602017263227,Chinese Restaurant
M7R,Canada Post Gateway Processing Centre,43.6369656,-79.61581899999999,18.38602017263227,Coffee Shop
M7R,Canada Post Gateway Processing Centre,43.6369656,-79.61581899999999,18.38602017263227,Breakfast Spot
M7Y,Business Reply Mail Processing Centre 969 Eastern,43.6627439,-79.321558,5.341597569442262,Fast Food Restaurant
M7Y,Business Reply Mail Processing Centre 969 Eastern,43.6627439,-79.321558,5.341597569442262,Restaurant
M7Y,Business Reply Mail Processing Centre 969 Eastern,43.6627439,-79.321558,5.341597569442262,Comic Shop
M7Y,Business Reply Mail Processing Centre 969 Eastern,43.6627439,-79.321558,5.341597569442262,Pizza Place
M7Y,Business Reply Mail Processing Centre 969 Eastern,43.6627439,-79.321558,5.341597569442262,Sandwich Place
M7Y,Business Reply Mail Processing Centre 969 Eastern,43.6627439,-79.321558,5.341597569442262,Fast Food Restaurant
M7Y,Business Reply Mail Processing Centre 969 Eastern,43.6627439,-79.321558,5.341597569442262,Butcher
M7Y,Business Reply Mail Processing Centre 969 Eastern,43.6627439,-79.321558,5.341597569442262,Restaurant
M7Y,Business Reply Mail Processing Centre 969 Eastern,43.6627439,-79.321558,5.341597569442262,Theme Restaurant
M8V,"Humber Bay Shores, Mimico South, New Toronto",43.6056466,-79.50132070000001,10.587891867700355,Sandwich Place
M8W,"Alderwood, Long Branch",43.60241370000001,-79.54348409999999,13.749369865639114,Diner
M8W,"Alderwood, Long Branch",43.60241370000001,-79.54348409999999,13.749369865639114,Coffee Shop
M8W,"Alderwood, Long Branch",43.60241370000001,-79.54348409999999,13.749369865639114,Pizza Place
M8W,"Alderwood, Long Branch",43.60241370000001,-79.54348409999999,13.749369865639114,Hungarian Restaurant
M8W,"Alderwood, Long Branch",43.60241370000001,-79.54348409999999,13.749369865639114,Breakfast Spot
M8W,"Alderwood, Long Branch",43.60241370000001,-79.54348409999999,13.749369865639114,Café
M8W,"Alderwood, Long Branch",43.60241370000001,-79.54348409999999,13.749369865639114,Indian Restaurant
M8W,"Alderwood, Long Branch",43.60241370000001,-79.54348409999999,13.749369865639114,Coffee Shop
M8W,"Alderwood, Long Branch",43.60241370000001,-79.54348409999999,13.749369865639114,Deli / Bodega
M8W,"Alderwood, Long Branch",43.60241370000001,-79.54348409999999,13.749369865639114,BBQ Joint
M8W,"Alderwood, Long Branch",43.60241370000001,-79.54348409999999,13.749369865639114,Sandwich Place
M8X,"Montgomery Road, Old Mill North, The Kingsway",43.653653600000005,-79.5069436,9.578989565622322,Sandwich Place
M8Y,"Humber Bay, King's Mill Park, Kingsway Park South East, Mimico NE, Old Mill South, Royal York South East, Sunnylea, The Queensway East",43.6362579,-79.49850909999999,9.118469093878518,Breakfast Spot
M8Z,"Kingsway Park South West, Mimico NW, Royal York South West, South of Bloor, The Queensway West",43.6288408,-79.52099940000001,11.060682194294895,Convenience Store
M8Z,"Kingsway Park South West, Mimico NW, Royal York South West, South of Bloor, The Queensway West",43.6288408,-79.52099940000001,11.060682194294895,Fast Food Restaurant
M8Z,"Kingsway Park South West, Mimico NW, Royal York South West, South of Bloor, The Queensway West",43.6288408,-79.52099940000001,11.060682194294895,Wings Joint
M8Z,"Kingsway Park South West, Mimico NW, Royal York South West, South of Bloor, The Queensway West",43.6288408,-79.52099940000001,11.060682194294895,Grocery Store
M8Z,"Kingsway Park South West, Mimico NW, Royal York South West, South of Bloor, The Queensway West",43.6288408,-79.52099940000001,11.060682194294895,Burger Joint
M8Z,"Kingsway Park South West, Mimico NW, Royal York South West, South of Bloor, The Queensway West",43.6288408,-79.52099940000001,11.060682194294895,BBQ Joint
M8Z,"Kingsway Park South West, Mimico NW, Royal York South West, South of Bloor, The Queensway West",43.6288408,-79.52099940000001,11.060682194294895,Sandwich Place
M8Z,"Kingsway Park South West, Mimico NW, Royal York South West, South of Bloor, The Queensway West",43.6288408,-79.52099940000001,11.060682194294895,Dessert Shop
M9A,Islington Avenue,43.6678556,-79.53224240000002,11.704858684701227,No Restaurants
M9B,"Cloverdale, Islington, Martin Grove, Princess Gardens, West Deane Park",43.6509432,-79.55472440000001,13.405583355557734,No Restaurants
M9C,"Bloordale Gardens, Eringate, Markland Wood, Old Burnhamthorpe",43.6435152,-79.57720079999999,15.243681949861218,Café
M9C,"Bloordale Gardens, Eringate, Markland Wood, Old Burnhamthorpe",43.6435152,-79.57720079999999,15.243681949861218,Fried Chicken Joint
M9C,"Bloordale Gardens, Eringate, Markland Wood, Old Burnhamthorpe",43.6435152,-79.57720079999999,15.243681949861218,Pizza Place
M9C,"Bloordale Gardens, Eringate, Markland Wood, Old Burnhamthorpe",43.6435152,-79.57720079999999,15.243681949861218,Coffee Shop
M9C,"Bloordale Gardens, Eringate, Markland Wood, Old Burnhamthorpe",43.6435152,-79.57720079999999,15.243681949861218,Mediterranean Restaurant
M9L,Humber Summit,43.7563033,-79.56596329999999,18.263320182304977,Pizza Place
M9M,"Emery, Humberlea",43.7247659,-79.53224240000002,14.013975433805795,No Restaurants
M9N,Weston,43.706876,-79.51818840000001,12.012300850786875,No Restaurants
M9P,Westmount,43.696319,-79.53224240000002,12.519183804006847,Coffee Shop
M9P,Westmount,43.696319,-79.53224240000002,12.519183804006847,Pizza Place
M9R,"Kingsview Village, Martin Grove Gardens, Richview Gardens, St. Phillips",43.6889054,-79.55472440000001,13.951376102155935,Japanese Restaurant
M9V,"Albion Gardens, Beaumond Heights, Humbergate, Jamestown, Mount Olive, Silverstone, South Steeles, Thistletown",43.739416399999996,-79.5884369,18.685011663653178,Caribbean Restaurant
M9V,"Albion Gardens, Beaumond Heights, Humbergate, Jamestown, Mount Olive, Silverstone, South Steeles, Thistletown",43.739416399999996,-79.5884369,18.685011663653178,Caribbean Restaurant
M9V,"Albion Gardens, Beaumond Heights, Humbergate, Jamestown, Mount Olive, Silverstone, South Steeles, Thistletown",43.739416399999996,-79.5884369,18.685011663653178,Pizza Place
M9V,"Albion Gardens, Beaumond Heights, Humbergate, Jamestown, Mount Olive, Silverstone, South Steeles, Thistletown",43.739416399999996,-79.5884369,18.685011663653178,Coffee Shop
M9V,"Albion Gardens, Beaumond Heights, Humbergate, Jamestown, Mount Olive, Silverstone, South Steeles, Thistletown",43.739416399999996,-79.5884369,18.685011663653178,Pizza Place
M9V,"Albion Gardens, Beaumond Heights, Humbergate, Jamestown, Mount Olive, Silverstone, South Steeles, Thistletown",43.739416399999996,-79.5884369,18.685011663653178,Pizza Place
M9V,"Albion Gardens, Beaumond Heights, Humbergate, Jamestown, Mount Olive, Silverstone, South Steeles, Thistletown",43.739416399999996,-79.5884369,18.685011663653178,Grocery Store
M9V,"Albion Gardens, Beaumond Heights, Humbergate, Jamestown, Mount Olive, Silverstone, South Steeles, Thistletown",43.739416399999996,-79.5884369,18.685011663653178,Bagel Shop
M9V,"Albion Gardens, Beaumond Heights, Humbergate, Jamestown, Mount Olive, Silverstone, South Steeles, Thistletown",43.739416399999996,-79.5884369,18.685011663653178,Bakery
M9V,"Albion Gardens, Beaumond Heights, Humbergate, Jamestown, Mount Olive, Silverstone, South Steeles, Thistletown",43.739416399999996,-79.5884369,18.685011663653178,Indian Restaurant
M9V,"Albion Gardens, Beaumond Heights, Humbergate, Jamestown, Mount Olive, Silverstone, South Steeles, Thistletown",43.739416399999996,-79.5884369,18.685011663653178,Pizza Place
M9V,"Albion Gardens, Beaumond Heights, Humbergate, Jamestown, Mount Olive, Silverstone, South Steeles, Thistletown",43.739416399999996,-79.5884369,18.685011663653178,Bakery
M9V,"Albion Gardens, Beaumond Heights, Humbergate, Jamestown, Mount Olive, Silverstone, South Steeles, Thistletown",43.739416399999996,-79.5884369,18.685011663653178,Bakery
M9V,"Albion Gardens, Beaumond Heights, Humbergate, Jamestown, Mount Olive, Silverstone, South Steeles, Thistletown",43.739416399999996,-79.5884369,18.685011663653178,Food Truck
M9V,"Albion Gardens, Beaumond Heights, Humbergate, Jamestown, Mount Olive, Silverstone, South Steeles, Thistletown",43.739416399999996,-79.5884369,18.685011663653178,Bakery
M9V,"Albion Gardens, Beaumond Heights, Humbergate, Jamestown, Mount Olive, Silverstone, South Steeles, Thistletown",43.739416399999996,-79.5884369,18.685011663653178,Bakery
M9V,"Albion Gardens, Beaumond Heights, Humbergate, Jamestown, Mount Olive, Silverstone, South Steeles, Thistletown",43.739416399999996,-79.5884369,18.685011663653178,Pizza Place
M9V,"Albion Gardens, Beaumond Heights, Humbergate, Jamestown, Mount Olive, Silverstone, South Steeles, Thistletown",43.739416399999996,-79.5884369,18.685011663653178,Pizza Place
M9V,"Albion Gardens, Beaumond Heights, Humbergate, Jamestown, Mount Olive, Silverstone, South Steeles, Thistletown",43.739416399999996,-79.5884369,18.685011663653178,Pizza Place
M9V,"Albion Gardens, Beaumond Heights, Humbergate, Jamestown, Mount Olive, Silverstone, South Steeles, Thistletown",43.739416399999996,-79.5884369,18.685011663653178,Pizza Place
M9V,"Albion Gardens, Beaumond Heights, Humbergate, Jamestown, Mount Olive, Silverstone, South Steeles, Thistletown",43.739416399999996,-79.5884369,18.685011663653178,Indian Restaurant
M9V,"Albion Gardens, Beaumond Heights, Humbergate, Jamestown, Mount Olive, Silverstone, South Steeles, Thistletown",43.739416399999996,-79.5884369,18.685011663653178,Fried Chicken Joint
M9V,"Albion Gardens, Beaumond Heights, Humbergate, Jamestown, Mount Olive, Silverstone, South Steeles, Thistletown",43.739416399999996,-79.5884369,18.685011663653178,Sandwich Place
M9V,"Albion Gardens, Beaumond Heights, Humbergate, Jamestown, Mount Olive, Silverstone, South Steeles, Thistletown",43.739416399999996,-79.5884369,18.685011663653178,Pizza Place
M9V,"Albion Gardens, Beaumond Heights, Humbergate, Jamestown, Mount Olive, Silverstone, South Steeles, Thistletown",43.739416399999996,-79.5884369,18.685011663653178,Japanese Restaurant
M9V,"Albion Gardens, Beaumond Heights, Humbergate, Jamestown, Mount Olive, Silverstone, South Steeles, Thistletown",43.739416399999996,-79.5884369,18.685011663653178,Mediterranean Restaurant
M9V,"Albion Gardens, Beaumond Heights, Humbergate, Jamestown, Mount Olive, Silverstone, South Steeles, Thistletown",43.739416399999996,-79.5884369,18.685011663653178,Caribbean Restaurant
M9W,Northwest,43.706748299999994,-79.5940544,17.554465905945037,No Restaurants
